name,city,county,phone,website,num_schools,grades
Alpine County Unified School District,Markleeville,Alpine,(530) 694-2230,http://www.alpinecoe.k12.ca.us,2,K-12
Allensworth Elementary School District,Allensworth,Tulare,(661) 849-2401,http://www.tcoe.org/districts/allensworth.shtm,1,K-8
Alisal Union School District,Salinas,Monterey,(831) 753-5700,http://www.alisal.org,13,K-6
Alpine County Office Of Education School District,Markleeville,Alpine,(530) 694-2230,http://www.alpinecoe.k12.ca.us,1,1-12
Alexander Valley Union Elementary School District,Healdsburg,Sonoma,(707) 433-1375,http://www.alexandervalleyusd.org,1,K-6
Alpaugh Unified School District,Alpaugh,Tulare,(559) 949-8413,http://www.tcoe.org/districts/alpaugh.shtm,4,K-12
Alhambra Unified School District,Alhambra,Los Angeles,(626) 943-3000,http://www.ausd.us,18,K-12
Albany City Unified School District,Albany,Alameda,(510) 558-3750,http://www.ausdk12.org,6,K-12
Acalanes Union High School District,Lafayette,Contra Costa,(925) 280-3900,http://www.acalanes.k12.ca.us,6,9-12
Yuba County Office Of Education School District,Marysville,Yuba,(530) 749-4900,http://www.yuba.net,3,K-12
Acton-Agua Dulce Unified School District,Acton,Los Angeles,(661) 269-5999,http://www.aadusd.k12.ca.us,20,K-12
Alameda City Unified School District,Hayward,Alameda,(510) 887-0152,http://www.acoe.org,11,PK-12
Alameda Unified School District,Alameda,Alameda,(510) 337-7000,http://www.alameda.k12.ca.us,22,K-12
Adelanto Elementary School District,Adelanto,San Bernardino,(760) 246-8691,http://www.aesd.net,15,K-12
Ackerman Charter School District,Auburn,Placer,(530) 885-1974,http://www.bowmancharter.org,1,K-8
Yucaipa-Calimesa Joint Unified School District,Yucaipa,San Bernardino,(909) 797-0174,http://www.yucaipaschools.com,16,PK-12
Yreka Union High School District,Yreka,Siskiyou,(530) 842-2521,http://www.yuhsd.net,4,9-12
Yolo County Office Of Education School District,Woodland,Yolo,(530) 668-6700,http://www.ycoe.org,3,K-12
Yosemite Rop School District,Modesto,Stanislaus,(209) 525-5093,,1,11-12
Yreka Union Elementary School District,Yreka,Siskiyou,(530) 842-1168,http://www.yrekausd.net,3,K-8
Yosemite Unified School District,Oakhurst,Madera,(559) 683-8801,http://www.yosemiteusd.com,12,K-12
Wright Elementary School District,Santa Rosa,Sonoma,(707) 542-0550,http://www.wrightesd.org,3,PK-8
Yuba City Unified School District,Yuba City,Sutter,(530) 822-5200,http://www.ycusd.k12.ca.us,20,PK-12
Yolo County Rop School District,Woodland,Yolo,(530) 668-3770,,1,9-12
Woodside Elementary School District,Woodside,San Mateo,(650) 851-1571,http://www.woodsideschool.us,1,K-8
Woodlake Unified School District,Woodlake,Tulare,(559) 564-8081,http://www.w-usd.org,7,K-12
Winters Joint Unified School District,Winters,Yolo,(530) 795-6100,http://www.wintersjusd.org,4,K-12
Winton School District,Winton,Merced,(209) 357-6175,http://www.winton.k12.ca.us,4,K-8
Wiseburn Unified School District,El Segundo,Los Angeles,(310) 643-3025,http://www.wiseburn.k12.ca.us,8,K-12
Woodland Joint Unified School District,Woodland,Yolo,(530) 662-0201,http://www.wjusd.org,18,K-12
Winship-Robbins School District,Meridian,Sutter,(530) 696-2451,http://winship-robbins.sutter.k12.ca.us,3,K-12
Woodville Union Elementary School District,Porterville,Tulare,(559) 686-9712,http://www.tcoe.org/districts/woodville.shtm,1,K-8
Willow Grove Union Elementary School District,Paicines,San Benito,(831) 628-3256,http://www.sbcoe.k12.ca.us/willow.grove.html,1,K-8
Willow Creek Elementary School District,Montague,Siskiyou,(530) 459-3313,http://www.sisnet.ssku.k12.ca.us/~willoweb,1,K-8
Wilmar Union Elementary School District,Petaluma,Sonoma,(707) 765-4340,http://www.wilsonschoolpetaluma.org,1,K-6
Willits Unified School District,Willits,Mendocino,(707) 459-5314,http://www.willitsunified.net,11,K-12
Willows Unified School District,Willows,Glenn,(530) 934-6600,http://www.willowsunified.org,4,K-12
Wilsona Elementary School District,Palmdale,Los Angeles,(661) 264-1111,http://www.wilsonasd.net,3,K-8
Williams Unified School District,Williams,Colusa,(530) 473-2550,http://www.williamsusd.net,4,K-12
Windsor Unified School District,Windsor,Sonoma,(707) 837-7701,http://www.wusd.org,10,K-12
William (R) Rouse Rop School District,Loyalton,Sierra,(530) 993-4991,http://sierra-coe.k12.ca.us,1,10-12
William S. Hart Union High School District,Santa Clarita,Los Angeles,(661) 259-0033,http://www.hartdistrict.org,20,K-12
Westwood Unified School District,Westwood,Lassen,(530) 256-2311,http://westwoodusd.org,2,K-12
Whitmore Union Elementary School District,Whitmore,Shasta,(530) 472-3243,http://www.shastalink.k12.ca.us/whitmore,4,K-12
Wheatland School District,Wheatland,Yuba,(530) 633-3130,http://www.wheatland.k12.ca.us,4,K-8
Wheatland Union High School District,Wheatland,Yuba,(530) 633-3100,http://www.wheatlandhigh.org,2,7-12
Whittier City Elementary School District,Whittier,Los Angeles,(562) 789-3000,http://www.whittiercity.net,13,K-8
Whittier Union High School District,Whittier,Los Angeles,(562) 698-8121,http://www.wuhsd.k12.ca.us,8,9-12
Westside Union Elementary School District,Quartz Hill,Los Angeles,(661) 722-0716,http://www.westside.k12.ca.us,12,K-8
West Side Union Elementary School District,Healdsburg,Sonoma,(707) 433-3923,http://www.westsideusd.org,1,K-6
West Park Elementary School District,Fresno,Fresno,(559) 233-6501,http://www.westpark.k12.ca.us,2,PK-12
Westside Elementary School District,Five Points,Fresno,(559) 884-2494,,4,K-12
Westminster Elementary School District,Westminster,Orange,(714) 894-7311,http://www.wsdk8.us,17,PK-8
Westmorland Union Elementary School District,Westmorland,Imperial,(760) 344-4364,,1,385
West Sonoma County Union High School District,Sebastopol,Sonoma,(707) 824-6403,http://www.wscuhsd.k12.ca.us,5,PK-12
Western Placer Unified School District,Lincoln,Placer,(916) 645-6350,http://www.wpusd.k12.ca.us,15,K-12
West Covina Unified School District,West Covina,Los Angeles,(626) 939-4600,http://www.wcusd.org,17,K-12
Waugh Elementary School District,Petaluma,Sonoma,(707) 765-3331,http://www.waughsd.org,2,K-6
Waukena Joint Union Elementary School District,Tulare,Tulare,(559) 686-3328,http://www.tcoe.org/districts/waukena.shtm,1,K-8
Washington Unified School District,Fresno,Fresno,(559) 495-5626,http://www.wusd.ws,8,K-12
Weaver Union School District,Merced,Merced,(209) 723-7606,http://www.weaverusd.k12.ca.us,4,PK-8
Washington Union Elementary School District,Salinas,Monterey,(831) 484-2166,http://www.washingtonusd.org,4,PK-8
Waterford Unified School District,Waterford,Stanislaus,(209) 874-1809,http://www.waterford.k12.ca.us,7,K-12
Weed Union Elementary School District,Weed,Siskiyou,(530) 926-6007,http://www.mtshastaandweedschooldistricts.com,1,K-8
West Contra Costa Unified School District,Richmond,Contra Costa,(510) 231-1101,http://www.wccusd.net,65,PK-12
Washington Colony Elementary School District,Fresno,Fresno,(559) 233-0706,http://www.washingtoncolony.k12.ca.us,1,K-8
Wasco Union High School District,Wasco,Kern,(661) 758-8447,,2,1773
Warner Unified School District,Warner Springs,San Diego,(760) 782-3517,http://www.sdcoe.k12.ca.us/districts/warner,7,K-12
Washington Unified School District,West Sacramento,Yolo,(559) 495-5626,http://www.wusd.ws,8,K-12
Walnut Creek Elementary School District,Walnut Creek,Contra Costa,(925) 944-6850,,7,3530
Walnut Valley Unified School District,Walnut,Los Angeles,(909) 595-1261,http://www.wvusd.k12.ca.us,16,K-12
Vista Unified School District,Vista,San Diego,(760) 726-2170,http://www.vusd.k12.ca.us,35,K-12
Wasco Union Elementary School District,Wasco,Kern,(661) 758-7100,,5,3316
Ventura County Rop School District,Camarillo,Ventura,(805) 388-4423,,1,10-12
Ventura County Office Of Education School District,Camarillo,Ventura,(805) 383-1902,http://www.vcoe.org,9,PK-12
Victor Valley Union High School District,Victorville,San Bernardino,(760) 955-3201,http://www.vvuhsd.org,11,7-12
Visalia Unified School District,Visalia,Tulare,(559) 730-7300,http://www.vusd.org,42,PK-12
Valley Rop School District,Sanger,Fresno,(559) 876-2122,http://www.valleyrop.net,1,9-12
Vineland Elementary School District,Bakersfield,Kern,(661) 845-3713,,2,843
Ventura Unified School District,Ventura,Ventura,(805) 641-5000,http://www.venturausd.org,29,K-12
Victor Elementary School District,Victorville,San Bernardino,(760) 245-1691,http://www.vesd.net,18,PK-6
Vista Del Mar Union School District,Gaviota,Santa Barbara,(805) 686-1880,http://www.sbceo.k12.ca.us/~sbceot20,1,K-8
Valle Lindo Elementary School District,South El Monte,Los Angeles,(626) 580-0610,http://www.vallelindo.k12.ca.us,2,K-8
Vallecito Union School District,Avery,Calaveras,(209) 795-8500,http://vallecito-ca.schoolloop.com,3,K-8
Vallecitos Elementary School District,Rainbow,San Diego,(760) 451-8200,http://www.vallecitossd.com,2,K-12
Vacaville Unified School District,Vacaville,Solano,(707) 453-6117,http://www.vacavilleusd.org,19,K-12
Valley Home Joint Elementary School District,Valley Home,Stanislaus,(209) 847-0117,http://www.vhjsd.org,1,K-8
Valley Center-Pauma Unified School District,Valley Center,San Diego,(760) 749-0464,http://www.vcpusd.k12.ca.us,8,K-12
Vallejo City Unified School District,Vallejo,Solano,(707) 556-8921,http://www.vallejo.k12.ca.us,28,K-12
Val Verde Unified School District,Perris,Riverside,(951) 940-6100,http://www.valverde.edu,23,PK-12
Union Hill Elementary School District,Grass Valley,Nevada,(530) 273-0647,http://www.uhsd.k12.ca.us,2,K-8
Two Rock Union School District,Petaluma,Sonoma,(707) 762-6617,http://www.trusd.org,1,K-6
Upland Unified School District,Upland,San Bernardino,(909) 985-1864,http://www.upland.k12.ca.us,15,PK-12
Ukiah Unified School District,Ukiah,Mendocino,(707) 472-5002,http://www.uusd.net,16,K-12
Upper Lake Unified,Upper Lake,Lake,,,6,PK-12
Twin Rivers Unified School District,Mcclellan,Sacramento,(916) 566-1600,http://www.twinriversusd.org,56,K-12
Twin Ridges Elementary School District,Nevada City,Nevada,(530) 265-9052,http://www.twinridgeselementary.com,3,PK-8
Union Elementary School District,San Jose,Santa Clara,(408) 377-8010,http://www.unionsd.org,8,PK-8
Tuolumne County Superintendent Of Schools School District,Sonora,Tuolumne,(209) 536-2000,http://www.tcsos.us,5,PK-12
Tulare Joint Union High School District,Tulare,Tulare,(559) 688-2021,http://www.tulare.k12.ca.us,8,9-12
Twin Hills Union Elementary School District,Sebastopol,Sonoma,(707) 823-0871,http://www.twinhillsusd.org,4,K-12
Tulare County Office Of Education School District,Visalia,Tulare,(559) 733-6300,http://www.tcoe.org,8,K-12
Turlock Unified School District,Turlock,Stanislaus,(209) 667-0633,http://www.turlock.k12.ca.us,17,K-12
Tulelake Basin Joint Unified School District,Tulelake,Modoc,(530) 667-2295,http://www.tbjusd.org,4,K-12
Twain Harte School District,Twain Harte,Tuolumne,(209) 586-3772,http://www.thsd.k12.ca.us,1,K-8
Tustin Unified School District,Tustin,Orange,(714) 730-7301,http://www.tustin.k12.ca.us,30,PK-12
Trinity County Office Of Education School District,Weaverville,Trinity,(530) 623-2861,http://www.tcoek12.org,3,K-12
Trinity Center Elementary School District,Trinity Center,Trinity,(530) 266-3342,http://www.tcoek12.org/tces/,1,K-8
Tri-Valley Rop School District,Livermore,Alameda,(925) 455-4800,,1,9-12
Trinity Alps Unified School District,Weaverville,Trinity,(530) 623-6104,http://www.tausd.org,5,K-12
Tri-County Rop School District,Yuba City,Sutter,(530) 822-2953,,1,9-12
Tulare City School District,Tulare,Tulare,(559) 685-7200,http://www.tcsdk8.org,17,K-8
Trinidad Union Elementary School District,Trinidad,Humboldt,(707) 677-3631,,1,177
Trona Joint Unified School District,Trona,San Bernardino,(760) 372-2861,http://www.trona.k12.ca.us,3,K-12
Tri-Cities Rop School District,Whittier,Los Angeles,(562) 698-9571,http://www.tcrop.k12.ca.us,1,9-12
Three Rivers Union Elementary School District,Three Rivers,Tulare,(559) 561-4466,http://www.threeriversschools.org,1,K-8
Tipton Elementary School District,Tipton,Tulare,(559) 752-4213,http://www.tiptonschool.org,1,K-8
Travis Unified School District,Fairfield,Solano,(707) 437-4604,http://www.travisusd.org,10,K-12
Traver Joint Elementary School District,Traver,Tulare,(559) 897-2755,http://www.tcoe.org/districts/traver.shtm,1,K-8
Torrance Unified School District,Torrance,Los Angeles,(310) 972-6500,http://www.tusd.org,34,PK-12
Tres Pinos Union Elementary School District,Tres Pinos,San Benito,(831) 637-0503,http://www.sbcoe.k12.ca.us/tres.pinos.html,1,K-8
Tracy Joint Unified School District,Tracy,San Joaquin,(209) 830-3200,http://www.tracy.k12.ca.us,23,PK-12
Thermalito Union Elementary School District,Oroville,Butte,(530) 538-2900,http://www.thermalito.org,6,K-8
Tamalpais Union High School District,Larkspur,Marin,(415) 945-3600,http://www.tamdistrict.org,6,9-12
Taft Union High School District,Taft,Kern,(661) 763-2330,,2,1042
Sylvan Union Elementary School District,Modesto,Stanislaus,(209) 574-5000,http://www.sylvan.k12.ca.us,14,K-8
Susanville Elementary School District,Susanville,Lassen,(530) 257-8200,http://www.susanvillesd.org,3,K-8
Sutter County Office Of Education School District,Yuba City,Sutter,(530) 822-2900,http://www.sutter.k12.ca.us,3,K-12
Taft City School District,Taft,Kern,(661) 763-1521,,6,2107
Tahoe-Truckee Unified School District,Truckee,Placer,(530) 582-2500,http://www.ttusd.org,13,K-12
Sutter Union High School District,Sutter,Sutter,(530) 822-5161,http://www.sutterhigh.k12.ca.us,2,9-12
Sweetwater Union High School District,Chula Vista,San Diego,(619) 691-5500,http://www.sweetwaterschools.org/,35,K-12
Surprise Valley Joint Unified School District,Cedarville,Modoc,(530) 279-6141,http://www.svjusd.org,2,K-12
Tehama County Department Of Education School District,Red Bluff,Tehama,(530) 527-5811,http://www.tehamaschools.org,3,PK-12
Templeton Unified School District,Templeton,San Luis Obispo,(805) 434-5800,http://tusd.ca.schoolloop.com/,8,PK-12
Temple City Unified School District,Temple City,Los Angeles,(626) 548-5000,http://www.tcusd.net,9,K-12
Tehama County Rop School District,Red Bluff,Tehama,(530) 528-7341,,1,10-12
Tehachapi Unified School District,Tehachapi,Kern,(661) 822-2100,http://www.teh.k12.ca.us,7,K-12
Terra Bella Union Elementary School District,Terra Bella,Tulare,(559) 535-4451,http://www.tbuesd.org,2,K-8
Temecula Valley Unified School District,Temecula,Riverside,(951) 676-2661,http://www.tvusd.k12.ca.us,31,K-12
Sunnyside Union Elementary School District,Strathmore,Tulare,(559) 568-1741,http://www.sunnysideunion.com,1,PK-8
Sundale Union Elementary School District,Tulare,Tulare,(559) 688-7451,http://www.sundaleschool.com,1,K-8
Sulphur Springs Union School District,Canyon Country,Los Angeles,(661) 252-5131,http://www.sssd.k12.ca.us,10,PK-6
Strathmore Union Elementary School District,Strathmore,Tulare,(559) 568-1283,http://www.suesd.k12.ca.us,2,K-8
Summerville Union High School District,Tuolumne,Tuolumne,(209) 928-3498,http://www.summbears.k12.ca.us,7,K-12
Sunnyvale School District,Sunnyvale,Santa Clara,(408) 522-8200,http://www.sesd.org,10,K-8
Summerville Elementary School District,Tuolumne,Tuolumne,(209) 928-4291,http://www.sumel.k12.ca.us,1,K-8
Sunol Glen Unified School District,Sunol,Alameda,(925) 862-2026,http://www.sunol.k12.ca.us,1,K-8
Springville Union Elementary School District,Springville,Tulare,(559) 539-2605,http://www.springvilleschool.org,1,K-8
Stone Corral Elementary School District,Visalia,Tulare,(559) 528-4455,http://www.tcoe.org/districts/stonecorral.shtm,3,K-12
Standard Elementary School District,Bakersfield,Kern,(661) 392-2110,,4,2906
Spreckels Union Elementary School District,Spreckels,Monterey,(831) 455-2550,http://www.spreckelsunionsd.org/,2,K-8
Stanislaus County Office Of Education School District,Modesto,Stanislaus,(209) 238-1700,http://www.stancoe.org,7,PK-12
Stony Creek Joint Unified School District,Elk Creek,Glenn,(530) 968-5361,http://www.scjusd.org,4,K-12
Stanislaus Union Elementary School District,Modesto,Stanislaus,(209) 529-9546,http://www.stanunion.k12.ca.us,6,K-8
Stockton Unified School District,Stockton,San Joaquin,(209) 933-7000,http://www.stocktonusd.net,64,K-12
Spencer Valley Elementary School District,Santa Ysabel,San Diego,(760) 765-0336,http://www.sdcoe.k12.ca.us/districts/spencer,3,K-12
Southern Trinity Joint Unified School District,Bridgeville,Trinity,(707) 574-6237,http://stjusd.org,5,K-12
Southside Elementary School District,Hollister,San Benito,(831) 637-4439,http://www.sbcoe.k12.ca.us/districts/southside.html,1,K-8
South Whittier Elementary School District,Whittier,Los Angeles,(562) 944-6231,http://www.swhittier.k12.ca.us/,7,K-8
Southern Humboldt Joint Unified School District,Miranda,Humboldt,(707) 943-1789,,8,775
Southern Kern Unified School District,Rosamond,Kern,(661) 256-5000,,6,3043
South San Francisco Unified School District,South San Francisco,San Mateo,(650) 877-8700,http://www.ssfusd.org,18,PK-12
Southern California Roc School District,Torrance,Los Angeles,(310) 320-6700,,1,10-12
South Fork Union School District,Weldon,Kern,(760) 378-4000,,1,274
Soquel Union Elementary School District,Capitola,Santa Cruz,(831) 464-5639,http://www.soqueldo.santacruz.k12.ca.us,5,PK-8
Sonora Union High School District,Sonora,Tuolumne,(209) 533-8510,http://www.sonorahs.k12.ca.us,3,9-12
South Monterey County Joint Union High School District,King City,Monterey,(831) 385-0606,http://www.smcjuhsd.org,4,9-12
South Pasadena Unified School District,South Pasadena,Los Angeles,(626) 441-5810,http://www.spusd.net,5,K-12
South Bay Union School District,Imperial Beach,San Diego,(619) 628-1600,http://www.sbusd.org,12,PK-8
South Bay Union Elementary School District,Eureka,Humboldt,(707) 476-8549,http://www.southbaydistrict.org,4,K-12
Soulsbyville Elementary School District,Soulsbyville,Tuolumne,(209) 532-1419,http://www.soulsbyville.k12.ca.us,1,K-8
Sonoma County Office Of Education School District,Santa Rosa,Sonoma,(707) 524-2600,http://www.scoe.org,2,PK-12
Somis Union School District,Somis,Ventura,(805) 386-8258,http://www.somisusd.org,1,K-8
Sonora Elementary School District,Sonora,Tuolumne,(209) 532-5491,http://www.ses.k12.ca.us,1,K-8
Sonoma Valley Unified School District,Sonoma,Sonoma,(707) 935-6000,http://svusdca.org/,11,K-12
Solvang Elementary School District,Solvang,Santa Barbara,(805) 697-4453,http://www.solvangschool.org,1,K-8
Sonoma County Rop School District,Santa Rosa,Sonoma,(707) 524-2720,,1,10-12
Soledad Unified School District,Soledad,Monterey,(831) 678-3987,http://www.soledadusd.org,11,PK-12
Solano County Office Of Education School District,Fairfield,Solano,(707) 399-4400,http://www.solanocoe.net,3,PK-12
Snelling-Merced Falls Union Elementary School District,Snelling,Merced,(209) 563-6414,http://www.snelling.k12.ca.us,1,K-8
Siskiyou Rop School District,Yreka,Siskiyou,(530) 842-6151,,1,9-12
Siskiyou County Office Of Education School District,Yreka,Siskiyou,(530) 842-8400,http://www.siskiyoucoe.net,2,K-12
Siskiyou Union High School District,Mount Shasta,Siskiyou,(530) 926-3006,http://www.sisuhsd.net,7,9-12
Solana Beach Elementary School District,Solana Beach,San Diego,(858) 794-7100,http://www.sbsd.k12.ca.us,8,PK-6
Simi Valley Unified School District,Simi Valley,Ventura,(805) 306-4500,http://www.simi.k12.ca.us,28,PK-12
Snowline Joint Unified School District,Phelan,San Bernardino,(760) 868-5817,http://www.snowlineschools.com,13,K-12
Silver Valley Unified School District,Yermo,San Bernardino,(760) 254-2916,http://www.svusdk12.net,10,PK-12
Sierra County Office Of Education School District,Loyalton,Sierra,(530) 993-1660,http://www.sierracountyofficeofeducation.org/,1,2
Sierra-Plumas Joint Unified School District,Loyalton,Sierra,(530) 993-1660,http://www.sierracountyofficeofeducation.org/,5,K-12
Silver Fork Elementary School District,Pollock Pines,El Dorado,(530) 644-5416,http://www.edcoe.org/districts/sfsd.html,1,K-8
Shoreline Unified School District,Tomales,Marin,(707) 878-2266,http://shorelineunified.org,6,PK-12
Shasta-Trinity Rop School District,Redding,Shasta,(530) 246-3302,,1,10-12
Sierra Unified School District,Prather,Fresno,(559) 855-3662,http://www.sierra.k12.ca.us,7,K-12
Shiloh Elementary School District,Modesto,Stanislaus,(209) 522-2261,http://www.shiloh.k12.ca.us,2,K-8
Sierra Sands Unified School District,Ridgecrest,Kern,(760) 499-1604,,12,5055
Sequoia Union Elementary School District,Lemon Cove,Tulare,(559) 564-2106,http://www.tcoe.net/districts/sequoiaunion.shtm,2,K-8
Shasta Union Elementary School District,Shasta,Shasta,(530) 243-1110,http://www.shastalink.k12.ca.us/sue,1,K-8
Shandon Joint Unified School District,Shandon,San Luis Obispo,(805) 238-0286,http://www.shandonschools.org,3,K-12
Shaffer Union Elementary School District,Litchfield,Lassen,(530) 254-6577,http://www.shafferschool.com,1,K-8
Shasta Union High School District,Redding,Shasta,(530) 241-3261,http://www.suhsd.net,12,6-12
Semitropic Elementary School District,Wasco,Kern,(661) 758-6412,http://sesd-sesd-ca.schoolloop.com/,1,K-8
Shasta County Office Of Education School District,Redding,Shasta,(530) 225-0200,http://www.shastacoe.org,4,K-12
Sequoia Union High School District,Redwood City,San Mateo,(650) 369-1411,http://www.seq.org,9,9-12
Seiad Elementary School District,Seiad Valley,Siskiyou,(530) 496-3308,http://www.sisnet.ssku.k12.ca.us/seiad.html,1,K-8
Seeley Union Elementary School District,Seeley,Imperial,(760) 352-3571,,1,383
Scotia Union Elementary School District,Scotia,Humboldt,(707) 764-2212,,1,234
Sbe - The School Of Arts And Enterprise School District,Pomona,Los Angeles,(909) 622-0699,http://www.thesae.k12.ca.us/main/welcome.shtml,1,6-12
Sbe - Thrive Public School District,San Diego,San Diego,(619) 839-9543,http://www.thriveps.org,1,K-12
Selma Unified School District,Selma,Fresno,(559) 898-6500,http://www.selmausd.org,13,K-12
Scott Valley Unified School District,Fort Jones,Siskiyou,(530) 468-2727,http://www.svusd.us,7,K-12
Scotts Valley Unified School District,Scotts Valley,Santa Cruz,(831) 438-1820,http://www.scottsvalleyusd.org,4,PK-12
Sebastopol Union Elementary School District,Sebastopol,Sonoma,(707) 829-4570,http://www.sebastopolschools.org,4,K-8
Sbe - Perseverance Preparatory School District,San Jose,Santa Clara,,,1,PK-12
Sbe - Prepa Tec Los Angeles High School District,Bell,Los Angeles,,,1,PK-12
Sbe - Ross Valley Elementary School District,Fairfax,Marin,,,1,PK-12
Sbe - Rocketship Futuro Academy School District,Concord,Contra Costa,,,1,PK-12
Sbe - Ridgecrest Charter School District,Ridgecrest,Kern,(760) 375-1010,http://www.ridgecrestcharterschool.org,1,K-8
Sbe - Onepurpose School District,San Francisco,San Francisco,(415) 657-0277,http://www.onepurposeschool.org,1,K-5
Sbe - Sweetwater Secondary School District,Chula Vista,San Diego,,,1,PK-12
Sbe - The New School Of San Francisco School District,San Francisco,San Francisco,(415) 866-8399,http://www.newschoolsf.org,1,K-5
Sbe - Olive Grove Charter School District,New Cuyama,Santa Barbara,(805) 623-1111,http://www.olivegrovecharter.com,1,K-12
Sbe - Celerity Himalia School District,Los Angeles,Los Angeles,,,1,PK-12
Sbe - Barack Obama Charter School District,Los Angeles,Los Angeles,(323) 566-1965,http://barackobamacharter.org/,1,PK-5
Sbe - Celerity Rolas School District,Los Angeles,Los Angeles,,,1,PK-12
Sbe - Magnolia Science Academy Santa Ana School District,Santa Ana,Orange,(714) 557-7002,http://www.magnoliapublicschools.org,1,K-12
Sbe - New West Charter School District,Los Angeles,Los Angeles,(310) 943-5444,http://www.newwestcharter.org,1,6-12
Sbe - Baypoint Preparatory Academy School District,Hemet,Riverside,(760) 471-0847,,1,K-12
Sbe - Grossmont Secondary School District,El Cajon,San Diego,,,1,PK-12
Sbe - Audeo Charter II,Carlsbad,San Diego,,,1,PK-12
Sbe - Anahuacalmecac International University Preparatory Of North America School District,Los Angeles,Los Angeles,(323) 352-3148,http://www.dignidad.org,1,K-12
Sausalito Marin City School District,Sausalito,Marin,(415) 332-3190,http://www.smcsd.org,2,K-8
Sbc - High Technical High School District,San Diego,San Diego,(619) 243-5014,http://www.hightechhigh.org,7,K-12
Sbe - Academia Avance Charter School District,Los Angeles,Los Angeles,(323) 230-7270,http://www.academiaavance.com,1,PK-12
Savanna Elementary School District,Anaheim,Orange,(714) 236-3800,http://www.savsd.org,4,K-6
Saucelito Elementary School District,Terra Bella,Tulare,(559) 784-2164,,1,K-8
Saugus Union School District,Santa Clarita,Los Angeles,(661) 294-5300,http://www.saugususd.org,15,K-6
Saratoga Union Elementary School District,Saratoga,Santa Clara,(408) 867-3424,http://www.saratogausd.org,4,K-8
Santa Ynez Valley Union High School District,Santa Ynez,Santa Barbara,(805) 688-6487,http://www.syvuhsd.org,2,9-12
Santa Rosa High School District,Santa Rosa,Sonoma,(707) 528-5181,http://www.srcs.k12.ca.us,13,5-12
Santa Paula Unified School District,Santa Paula,Ventura,(805) 933-8802,http://www.santapaulaunified.org,10,K-12
Santa Rita Union Elementary School District,Salinas,Monterey,(831) 443-7200,http://www.santaritaschools.org,7,PK-8
Santee School District,Santee,San Diego,(619) 258-2300,http://www.santeesd.net,11,K-8
Santa Maria-Bonita School District,Santa Maria,Santa Barbara,(805) 928-1783,http://www.smbsd.org,20,K-8
Santa Rosa Elementary School District,Santa Rosa,Sonoma,(707) 528-5352,http://www.srcs.k12.ca.us,13,K-8
Santa Monica-Malibu Unified School District,Santa Monica,Los Angeles,(310) 450-8338,http://www.smmusd.org,18,PK-12
Santa Maria Joint Union High School District,Santa Maria,Santa Barbara,(805) 922-4573,http://www.smjuhsd.k12.ca.us,4,9-12
Santa Cruz County Office Of Education School District,Santa Cruz,Santa Cruz,(831) 466-5600,http://www.santacruz.k12.ca.us,4,K-12
Santa Cruz City High School District,Soquel,Santa Cruz,(831) 429-3410,http://www.sccs.santacruz.k12.ca.us,10,K-12
Santa Clara Elementary School District,Santa Paula,Ventura,(805) 525-4573,http://www.scesd.k12.ca.us,1,K-6
Santa Cruz County Rop School District,Santa Cruz,Santa Cruz,(831) 466-5766,,1,10-12
Santa Cruz City Elementary School District,Soquel,Santa Cruz,(831) 429-3410,http://www.sccs.santacruz.k12.ca.us,5,K-6
Santa Clara County Rop School District,Sunnyvale,Santa Clara,(408) 733-0881,,1,10-12
Santa Clara Unified School District,Santa Clara,Santa Clara,(408) 423-2000,http://www.santaclarausd.org,28,K-12
Santa Barbara County Rop School District,Santa Barbara,Santa Barbara,(805) 967-4711,,2,9-12
Santa Barbara County Office Of Education School District,Santa Barbara,Santa Barbara,(805) 964-4711,http://www.sbceo.org,2,K-12
Santa Ana Unified School District,Santa Ana,Orange,(714) 558-5501,http://www.sausd.k12.ca.us,62,PK-12
Sanger Unified School District,Sanger,Fresno,(559) 524-6521,http://www.sanger.k12.ca.us,21,PK-12
San Ramon Valley Unified School District,Danville,Contra Costa,(925) 552-5500,,37,29884
San Ysidro Elementary School District,San Ysidro,San Diego,(619) 428-4476,http://www.sysd.k12.ca.us,7,PK-8
San Rafael City High School District,San Rafael,Marin,(415) 492-3233,http://www.srcs.org,4,9-12
Santa Clara County Office Of Education School District,San Jose,Santa Clara,(408) 453-6500,http://www.sccoe.org,25,PK-12
San Rafael City Elementary School District,San Rafael,Marin,(415) 492-3233,http://www.srcs.org,10,PK-8
San Miguel Joint Union School District,San Miguel,San Luis Obispo,(805) 467-3216,http://www.sanmiguelschools.org,3,PK-8
San Mateo County Rop School District,Redwood City,San Mateo,(650) 598-2000,,1,11-12
San Pasqual Union Elementary School District,Escondido,San Diego,(760) 745-4931,http://www.sanpasqualunion.net,1,K-8
Santa Barbara Unified School District,Santa Barbara,Santa Barbara,(805) 963-4338,,24,PK-12
San Pasqual Valley Unified School District,Winterhaven,Imperial,(760) 572-0222,,6,780
San Mateo County Office Of Education School District,Redwood City,San Mateo,(650) 802-5300,http://www.smcoe.org,5,K-12
San Marino Unified School District,San Marino,Los Angeles,(626) 299-7000,http://www.smusd.us,4,K-12
San Mateo Union High School District,San Mateo,San Mateo,(650) 558-2299,http://www.smuhsd.org,10,9-12
San Luis Obispo County Office Of Education School District,San Luis Obispo,San Luis Obispo,(805) 543-7732,http://www.slocoe.org,3,K-12
San Luis Coastal Unified School District,San Luis Obispo,San Luis Obispo,(805) 549-1200,http://www.slcusd.org,18,PK-12
San Mateo-Foster City School District,Foster City,San Mateo,(650) 312-7348,http://www.smfcsd.net,21,PK-8
San Marcos Unified School District,San Marcos,San Diego,(760) 752-1299,http://www.smusd.org,21,K-12
San Lorenzo Valley Unified School District,Ben Lomond,Santa Cruz,(831) 336-5194,http://www.slvusd.org,7,PK-12
San Lucas Union Elementary School District,San Lucas,Monterey,(831) 382-4426,http://sanlucasusd-ca.schoolloop.com/,1,K-8
San Lorenzo Unified School District,San Lorenzo,Alameda,(510) 317-4600,http://www.slzusd.org,20,PK-12
San Leandro Unified School District,San Leandro,Alameda,(510) 667-3500,http://www.sanleandro.k12.ca.us,13,K-12
San Joaquin County Office Of Education School District,Stockton,San Joaquin,(209) 468-4800,http://www.sjcoe.org,6,PK-12
San Juan Unified School District,Carmichael,Sacramento,(916) 971-7700,http://www.sanjuan.edu,79,PK-12
San Jose Unified School District,San Jose,Santa Clara,(408) 535-6090,http://www.sjusd.org,46,K-12
San Gabriel Unified School District,San Gabriel,Los Angeles,(626) 451-5400,http://www.sgusd.k12.ca.us,9,K-12
San Joaquin County Rop School District,Stockton,San Joaquin,(209) 468-9005,,1,10-12
San Jacinto Unified School District,San Jacinto,Riverside,(951) 929-7700,http://www.sanjacinto.k12.ca.us,16,PK-12
San Diego County Rop School District,San Diego,San Diego,(858) 292-3514,http://www.sdcoe.net,1,9-12
San Diego Community College School District,San Diego,San Diego,(619) 388-6500,,1,Ungraded
San Diego County Office Of Education School District,San Diego,San Diego,(858) 292-3500,http://www.sdcoe.net,10,PK-12
San Diego Unified School District,San Diego,San Diego,(619) 725-8000,http://www.sandi.net,225,K-12
San Francisco Unified School District,San Francisco,San Francisco,(415) 241-6000,http://www.sfusd.edu,127,PK-12
San Francisco County Rop School District,San Francisco,San Francisco,(415) 241-6121,,1,10-12
San Dieguito Union High School District,Encinitas,San Diego,(760) 753-6491,http://www.sduhsd.net,10,7-12
San Francisco County Office Of Education School District,San Francisco,San Francisco,(415) 241-6000,http://www.sfusd.edu/,3,K-12
San Carlos Elementary School District,San Carlos,San Mateo,(650) 508-7333,http://www.sancarlos.k12.ca.us,9,PK-8
San Benito High School District,Hollister,San Benito,(831) 637-5831,http://www.sbhsd.k12.ca.us,3,9-12
Sacramento County Rop School District,Mather,Sacramento,(916) 228-2463,,1,9-12
San Antonio Union Elementary School District,Lockwood,Monterey,(831) 385-3051,http://schools.monterey.k12.ca.us/~santonio/,1,K-8
Salinas City Elementary School District,Salinas,Monterey,(831) 753-5600,http://www.salinascity.k12.ca.us/,14,K-6
San Antonio Rop School District,Pomona,Los Angeles,(909) 469-2304,,1,K-12
Salida Union Elementary School District,Salida,Stanislaus,(209) 545-0339,http://www.salida.k12.ca.us,7,K-8
Salinas Union High School District,Salinas,Monterey,(831) 796-7000,http://www.salinas.k12.ca.us,13,7-12
Saddleback Valley Unified School District,Mission Viejo,Orange,(949) 586-1234,http://www.svusd.k12.ca.us,37,PK-12
Saint Helena Unified School District,Saint Helena,Napa,(707) 967-2708,http://www.sthelena.k12.ca.us,4,K-12
Sacramento County Office Of Education School District,Mather,Sacramento,(916) 228-2500,http://www.scoe.net,7,K-12
San Bernardino County Rop School District,San Bernardino,San Bernardino,(909) 252-4559,,1,9-12
San Ardo Union Elementary School District,San Ardo,Monterey,(831) 627-2520,http://sausd-k12-pt.schoolloop.com/,1,K-8
San Bruno Park Elementary School District,San Bruno,San Mateo,(650) 624-3100,http://www.sbpsd.k12.ca.us,7,K-8
San Benito County Office Of Education School District,Hollister,San Benito,(831) 637-5393,http://www.sbcoe.org,3,"PK, 7-12"
San Bernardino City Unified School District,San Bernardino,San Bernardino,(909) 381-1100,http://www.sbcusd.com,88,K-12
San Bernardino County Office Of Education School District,San Bernardino,San Bernardino,(909) 386-2704,http://www.sbcss.k12.ca.us,4,PK-12
Sacramento City Unified School District,Sacramento,Sacramento,(916) 643-9000,http://www.scusd.edu,84,K-12
Ross Valley Elementary School District,San Anselmo,Marin,(415) 454-2162,http://www.rossvalleyschools.org,5,K-8
Rowland Unified School District,Rowland Heights,Los Angeles,(626) 965-2541,http://www.rowlandschools.org,24,PK-12
Roseville Joint Union High School District,Roseville,Placer,(916) 786-2051,http://www.rjuhsd.us,9,9-12
Rosemead Elementary School District,Rosemead,Los Angeles,(626) 312-2900,http://www.rosemead.k12.ca.us,5,PK-8
Roseville City Elementary School District,Roseville,Placer,(916) 771-1600,http://www.rcsdk8.org,19,K-8
Ross Elementary School District,Ross,Marin,(415) 457-2705,http://www.rossbears.org,1,K-8
Round Valley Unified School District,Covelo,Mendocino,(707) 983-6171,http://www.mcoe.us/,4,K-12
Round Valley Joint Elementary School District,Bishop,Inyo,(760) 387-2525,http://rvjesd-ca.schoolloop.com/,1,K-8
Roberts Ferry Union Elementary School District,Waterford,Stanislaus,(209) 874-2331,http://www.robertsferry.k12.ca.us,2,K-8
Rocklin Unified School District,Rocklin,Placer,(916) 624-2428,http://www.rocklin.k12.ca.us,21,K-12
Robla Elementary School District,Sacramento,Sacramento,(916) 991-1728,http://www.robla.k12.ca.us,7,PK-12
Roseland School District,Santa Rosa,Sonoma,(707) 545-0102,http://www.roselandsd.org,4,PK-12
Rockford Elementary School District,Porterville,Tulare,(559) 784-5406,http://www.tcoe.net/districts/rockford.shtm,1,K-8
Rosedale Union Elementary School District,Bakersfield,Kern,(661) 588-6000,,9,5360
Romoland Elementary School District,Homeland,Riverside,(951) 926-9244,http://www.romoland.k12.ca.us,5,K-8
Riverside Unified School District,Riverside,Riverside,(951) 788-7135,http://www.rusd.k12.ca.us,52,PK-12
Riverside County Office Of Education Rop School District,Riverside,Riverside,(909) 826-6797,,1,9-12
Riverside County Office Of Education School District,Riverside,Riverside,(951) 826-6530,http://www.rcoe.us,10,PK-12
Riverdale Joint Unified School District,Riverdale,Fresno,(559) 867-8200,http://www.rjusd.org,4,K-12
Riverbank Unified School District,Riverbank,Stanislaus,(209) 869-2538,http://www.riverbank.k12.ca.us,6,K-12
Rio Dell Elementary School District,Rio Dell,Humboldt,(707) 764-5694,,2,332
Rio Bravo-greeley Union Elementary School District,Bakersfield,Kern,(661) 589-2696,,2,1004
Ripon Unified School District,Ripon,San Joaquin,(209) 599-2131,http://www.riponusd.net,9,K-12
Rio Elementary School District,Oxnard,Ventura,(805) 485-3111,http://www.rio.k12.ca.us,8,K-8
River Delta Joint Unified School District,Rio Vista,Sacramento,(707) 374-1700,http://riverdelta.org,13,K-12
Richmond Elementary School District,Susanville,Lassen,(530) 257-2338,http://www.richmondelementary.com,1,K-8
Richfield Elementary School District,Corning,Tehama,(530) 824-3354,http://www.richfieldschool.org,1,K-8
Rincon Valley Union Elementary School District,Santa Rosa,Sonoma,(707) 542-7375,http://www.rvusd.org,9,PK-8
Richgrove Elementary School District,Richgrove,Tulare,(661) 725-2424,http://www.richgrove.org,1,K-8
Richland Union Elementary School District,Shafter,Kern,(661) 746-8600,,5,3290
Rescue Union Elementary School District,Rescue,El Dorado,(530) 677-4461,http://www.rescueusd.org,7,K-8
Rialto Unified School District,Rialto,San Bernardino,(909) 820-7700,http://www.rialto.k12.ca.us,31,PK-12
Rim Of The World Unified School District,Blue Jay,San Bernardino,(909) 336-2031,http://www.rimsd.k12.ca.us,7,PK-12
Reed Union Elementary School District,Tiburon,Marin,(415) 381-1112,http://www.reedschools.org,3,K-8
Redondo Beach Unified School District,Redondo Beach,Los Angeles,(310) 379-5449,http://www.rbusd.org,14,K-12
Redding Elementary School District,Redding,Shasta,(530) 225-0011,http://www.reddingschools.net/home,10,K-12
Red Bluff Union Elementary School District,Red Bluff,Tehama,(530) 527-7200,http://www.rbuesd.org,5,K-8
Reef-sunset Unified School District,Avenal,Kings,(559) 386-9083,,10,2610
Redwood City Elementary School District,Redwood City,San Mateo,(650) 423-2200,http://www.rcsdk8.net,19,K-8
Redlands Unified School District,Redlands,San Bernardino,(909) 307-5300,http://www.redlands.k12.ca.us,27,K-12
Reeds Creek Elementary School District,Red Bluff,Tehama,(530) 527-6006,http://www.rcesd.tehama.k12.ca.us,1,K-8
Raymond-Knowles Union Elementary School District,Raymond,Madera,(559) 689-3336,http://www.rkusd.k12.ca.us,1,K-8
Rancho Santa Fe Elementary School District,Rancho Santa Fe,San Diego,(858) 756-1141,http://rsfschool.net,2,PK-8
Raisin City Elementary School District,Raisin City,Fresno,(559) 233-0128,http://www.raisincity.k12.ca.us,4,K-12
Princeton Joint Unified School District,Princeton,Glenn,(530) 439-2261,http://www.pjusd.org,2,K-12
Ravendale-Termo Elementary School District,Termo,Lassen,(530) 257-8200,,2,K-12
Ravenswood City Elementary School District,East Palo Alto,San Mateo,(650) 329-2800,http://www.ravenswoodschools.org,12,PK-12
Ramona City Unified School District,Ramona,San Diego,(760) 787-2007,http://www.ramonausd.net,12,K-12
Red Bluff Joint Union High School District,Red Bluff,Tehama,(530) 529-8700,http://www.tcde.tehama.k12.ca.us/redbluffjuhsd.html,3,9-12
Pollock Pines Elementary School District,Pollock Pines,El Dorado,(530) 644-5416,http://www.ppesd.org,2,K-8
Portola Valley Elementary School District,Portola Valley,San Mateo,(650) 851-1777,http://www.pvsd.net,2,K-8
Pond Union Elementary School District,Pond,Kern,(661) 792-2545,,1,233
Potter Valley Community Unified School District,Potter Valley,Mendocino,(707) 743-2101,http://www.mcoe.us/d/schools/pvcusd,4,K-12
Porterville Unified School District,Porterville,Tulare,(559) 793-2400,http://www.portervilleschools.org,23,K-12
Poway Unified School District,San Diego,San Diego,(858) 521-2800,http://www.powayusd.com,39,K-12
Pomona Unified School District,Pomona,Los Angeles,(909) 397-4800,http://www.pomona.k12.ca.us,42,PK-12
Pope Valley Union Elementary School District,Pope Valley,Napa,(707) 965-2402,http://www.popevalleyusd.org,1,K-8
Plumas County Rop School District,Quincy,Plumas,(530) 283-6500,,1,11-12
Pleasant View Elementary School District,Porterville,Tulare,(559) 784-6769,http://www.pleasant-view.k12.ca.us,2,K-8
Plumas Unified School District,Quincy,Plumas,(530) 283-6500,http://www.pcoe.k12.ca.us,11,K-12
Plumas Lake Elementary School District,Plumas Lake,Yuba,(530) 743-4428,http://www.plusd.org,3,K-8
Pleasant Valley School District,Camarillo,Ventura,(805) 482-2763,http://www.pvsd.k12.ca.us/pvsd/default.htm,13,PK-8
Pleasant Valley Joint Union Elementary School District,San Miguel,San Luis Obispo,(805) 467-3453,http://www.pleasant-valley-school.org,1,K-6
Plumas County Office Of Education School District,Quincy,Plumas,(530) 283-6500,http://www.pcoe.k12.ca.us,3,K-12
Point Arena Joint Union High School District,Point Arena,Mendocino,(707) 882-2803,http://www.pointarenaschools.org,2,9-12
Pleasanton Unified School District,Pleasanton,Alameda,(925) 462-5500,http://www.pleasantonusd.net,17,PK-12
Planada Elementary School District,Planada,Merced,(209) 382-0756,http://www.planada.org,2,PK-8
Pleasant Grove Joint Union School District,Pleasant Grove,Sutter,(916) 655-3235,http://www.pgroveschool.org,1,K-8
Plainsburg Union Elementary School District,Merced,Merced,(209) 389-4707,http://www.plainsburg.k12.ca.us,1,K-8
Placer Union High School District,Auburn,Placer,(530) 886-4400,http://www.puhsd.k12.ca.us,7,9-12
Pleasant Ridge Union Elementary School District,Grass Valley,Nevada,(530) 268-2800,http://www.prsd.k12.ca.us,5,PK-8
Placer Hills Union Elementary School District,Meadow Vista,Placer,(530) 878-2606,http://www.phusd.k12.ca.us,2,K-8
Placerville Union Elementary School District,Placerville,El Dorado,(530) 622-7216,http://www.pusd.k12.ca.us,3,K-8
Plaza Elementary School District,Orland,Glenn,(530) 865-1250,http://www.plazaschool.org,1,K-8
Pioneer Union Elementary School District,Berry Creek,Butte,(530) 589-1633,http://pioneer.bcoe.butte.k12.ca.us,1,K-8
Pioneer Union Elementary School District,Somerset,El Dorado,(530) 589-1633,http://pioneer.bcoe.butte.k12.ca.us,1,K-8
Pioneer Union Elementary School District,Hanford,Kings,(530) 589-1633,http://pioneer.bcoe.butte.k12.ca.us,1,K-8
Placentia-Yorba Linda Unified School District,Placentia,Orange,(714) 986-7000,http://www.pylusd.org,34,K-12
Piner-Olivet Union Elementary School District,Santa Rosa,Sonoma,(707) 522-3000,http://www.pousd.org,5,K-12
Placer County Office Of Education School District,Auburn,Placer,(530) 889-8020,http://www.placercoe.k12.ca.us,5,K-12
Pixley Union Elementary School District,Pixley,Tulare,(559) 757-5207,http://www.pixley.k12.ca.us,2,K-8
Pittsburg Unified School District,Pittsburg,Contra Costa,(925) 473-2300,http://www.pittsburg.k12.ca.us,14,K-12
Perris Elementary School District,Perris,Riverside,(951) 657-3118,http://www.perris.k12.ca.us,9,PK-8
Perris Union High School District,Perris,Riverside,(951) 943-6369,http://www.puhsd.org,8,5-12
Pine Ridge Elementary School District,Auberry,Fresno,(559) 841-2444,http://www.pineridge.k12.ca.us,1,K-8
Piedmont City Unified School District,Piedmont,Alameda,(510) 594-2600,http://www.piedmont.k12.ca.us,8,PK-12
Pierce Joint Unified School District,Arbuckle,Colusa,(530) 476-2892,http://www.pierce.k12.ca.us,5,K-12
Petaluma Joint Union High School District,Petaluma,Sonoma,(707) 778-4795,http://www.petalumacityschools.org,13,K-12
Penn Valley Union Elementary School District,Penn Valley,Nevada,(530) 432-7311,http://www.pennvalleyschools.k12.ca.us,4,PK-12
Petaluma City Elementary School District,Petaluma,Sonoma,(707) 778-4813,http://www.petalumacityschools.org,10,PK-12
Paso Robles Joint Unified School District,Paso Robles,San Luis Obispo,(805) 769-1000,http://www.pasoschools.org,12,PK-12
Paradise Unified School District,Paradise,Butte,(530) 872-6400,http://www.pusdk12.org,16,PK-12
Peninsula Union  School District,Samoa,Humboldt,(707) 443-2731,,1,39
Paramount Unified School District,Paramount,Los Angeles,(562) 602-6000,http://www.paramount.k12.ca.us,20,K-12
Paradise Elementary School District,Modesto,Stanislaus,(209) 524-0184,http://www.paradiseesd.org,2,K-8
Parlier Unified School District,Parlier,Fresno,(559) 646-2731,http://www.parlierunified.org,8,K-12
Pasadena Unified School District,Pasadena,Los Angeles,(626) 396-3600,http://www.pusd.us,34,K-12
Patterson Joint Unified School District,Patterson,Stanislaus,(209) 895-7700,http://www.patterson.k12.ca.us,11,K-12
Panoche Elementary School District,Paicines,San Benito,(831) 628-3438,http://www.sbcoe.k12.ca.us/districts/panoche.html,1,K-8
Palo Verde Unified School District,Blythe,Riverside,(760) 922-4164,http://www.pvusd.us,6,PK-12
Panama-Buena Vista Union School District,Bakersfield,Kern,(661) 831-8331,,24,16810
Palmdale Elementary School District,Palmdale,Los Angeles,(661) 947-7191,http://www.palmdalesd.org,31,K-12
Palo Verde Union Elementary School District,Tulare,Tulare,(559) 688-0648,http://www.tcoe.org/districts/paloverde.shtm,1,K-8
Palm Springs Unified School District,Palm Springs,Riverside,(760) 416-6000,http://www.psusd.us,29,PK-12
Palo Alto Unified School District,Palo Alto,Santa Clara,(650) 329-3700,http://www.pausd.org,20,K-12
Palos Verdes Peninsula Unified School District,Palos Verdes Estates,Los Angeles,(310) 378-9966,http://www.pvpusd.net,18,PK-12
Pacific Union Elementary School District,Fresno,Fresno,(707) 822-4619,,2,513
Pacifica School District,Pacifica,San Mateo,(650) 738-6600,http://www.pacificasd.org,8,PK-8
Pacheco Union Elementary School District,Redding,Shasta,(530) 224-4599,http://www.pacheco.k12.ca.us,2,K-8
Pacific Union Elementary School District,Arcata,Humboldt,(707) 822-4619,,2,513
Pacific Grove Unified School District,Pacific Grove,Monterey,(831) 646-6520,http://www.pgusd.org,6,K-12
Pajaro Valley Unified School District,Watsonville,Santa Cruz,(831) 786-2100,http://www.pvusd.net,34,K-12
Pacific Elementary School District,Davenport,Santa Cruz,(831) 425-7002,http://www.pacific.santacruz.k12.ca.us,1,K-6
Palermo Union Elementary School District,Palermo,Butte,(530) 533-4842,http://www.palermoschools.org,6,PK-8
Owens Valley Unified School District,Independence,Inyo,(760) 878-2405,,2,67
Oro Grande Elementary School District,Oro Grande,San Bernardino,(760) 243-5884,http://orogrande.net,3,K-12
Oxnard Union High School District,Oxnard,Ventura,(805) 385-2500,http://www.ouhsd.k12.ca.us,14,K-12
Oroville City Elementary School District,Oroville,Butte,(530) 532-3000,http://www.ocesd.org,9,PK-8
Oxnard School District,Oxnard,Ventura,(805) 385-1501,http://www.oxnardsd.org,21,PK-8
Outside Creek Elementary School District,Visalia,Tulare,(559) 747-0710,http://www.tcoe.net/districts/outsidecreek.shtm,1,K-8
Orland Joint Unified School District,Orland,Glenn,(530) 865-1200,,6,2194
Oroville Union High School District,Oroville,Butte,(530) 538-2300,http://www.ouhsd.org,5,9-12
Orick Elementary School District,Orick,Humboldt,(707) 488-2821,,1,17
Orange Center School District,Fresno,Fresno,(559) 237-0437,http://www.orangecenter.org,3,K-12
Ontario-Montclair School District,Ontario,San Bernardino,(909) 459-2500,http://www.omsd.net,32,PK-8
Old Adobe Union School District,Petaluma,Sonoma,(707) 765-4322,http://www.oldadobe.org,6,K-6
Orange County Department Of Education School District,Costa Mesa,Orange,(714) 966-4000,http://www.ocde.us,15,K-12
Orange Unified School District,Orange,Orange,(714) 628-4000,http://www.orangeusd.org,42,PK-12
Orcutt Union Elementary School District,Orcutt,Santa Barbara,(805) 938-8900,http://www.orcutt-schools.net/public,9,K-12
Orchard Elementary School District,San Jose,Santa Clara,(408) 944-0397,http://www.orchardsd.org,1,K-8
Orinda Union Elementary School District,Orinda,Contra Costa,(925) 254-4901,,5,2397
Ocean View School District,Oxnard,Ventura,(714) 847-2551,http://www.ovsd.org,16,PK-8
Ocean View School District,Huntington Beach,Orange,(714) 847-2551,http://www.ovsd.org,16,PK-8
Oakdale Joint Unified School District,Oakdale,Stanislaus,(209) 848-4884,http://www.ojusd.org,10,K-12
Ojai Unified School District,Ojai,Ventura,(805) 640-4300,http://www.ojai.k12.ca.us,11,PK-12
Oakley Union Elementary School District,Oakley,Contra Costa,(925) 625-0700,,8,4656
Oceanside Unified School District,Oceanside,San Diego,(760) 966-4000,http://www.oside.us,25,K-12
Oak View Union Elementary School District,Acampo,San Joaquin,(209) 368-0636,http://www.myoakview.com,1,K-8
Oakland Unified School District,Oakland,Alameda,(510) 879-8582,http://www.ousd.k12.ca.us,129,PK-12
Oak Grove Union Elementary School District,Santa Rosa,Sonoma,(707) 545-0171,http://www.ogusd.org,3,K-12
Nuview Union  School District,Nuevo,Riverside,(951) 928-0066,http://www.nuview.k12.ca.us,5,K-12
Nuestro Elementary School District,Live Oak,Sutter,(530) 822-5100,http://www.nuestroschool.org,2,K-12
Oak Run Elementary School District,Oak Run,Shasta,(530) 472-3241,http://www.oakrunschool.org,1,PK-8
Oak Valley Union Elementary School District,Tulare,Tulare,(559) 688-2908,http://www.oakvalleyschool.org,1,K-8
Oak Park Unified School District,Oak Park,Ventura,(818) 735-3200,http://www.oakparkusd.org,8,PK-12
Oak Grove Elementary School District,San Jose,Santa Clara,(408) 227-8300,http://www.ogsd.net,21,K-8
Novato Unified School District,Novato,Marin,(415) 897-4201,http://www.nusd.org,18,PK-12
North Kern Vocational Training Center School District,Wasco,Kern,(661) 758-3045,,1,9-12
North Orange County Rop-Adult School District,Anaheim,Orange,(714) 502-5800,http://www.nocrop.tec.ca.us,1,9-12
North County Regional Occupational Center Program (Roc P) School District,Sunnyvale,Santa Clara,(408) 522-2201,http://www.fuhsd.org,1,9-12
Northern Humboldt Union High School District,Mckinleyville,Humboldt,(707) 839-6481,http://www.nohum.k12.ca.us,7,K-12
North County Joint Union Elementary School District,Hollister,San Benito,(831) 637-5574,http://www.ncjusd.k12.ca.us,1,K-8
Norwalk-La Mirada Unified School District,Norwalk,Los Angeles,(562) 868-0431,http://www.nlmusd.k12.ca.us,29,PK-12
North Cow Creek Elementary School District,Palo Cedro,Shasta,(530) 549-4488,http://www.northcowcreek.org,1,K-8
North Monterey County Unified School District,Moss Landing,Monterey,(831) 633-3343,http://www.nmcusd.org,9,K-12
Norris Elementary School District,Bakersfield,Kern,(661) 387-7000,,5,3744
Newman-Crows Landing Unified School District,Newman,Stanislaus,(209) 862-2933,http://www.nclusd.k12.ca.us,10,K-12
Nicasio School District,Nicasio,Marin,(415) 662-2184,http://www.nicasioschool.org,1,K-8
Newark Unified School District,Newark,Alameda,(510) 818-4103,http://www.newarkunified.org,14,PK-12
New Jerusalem Elementary School District,Tracy,San Joaquin,(209) 740-4699,http://njesd-ca.schoolloop.com,15,K-12
Newcastle Elementary School District,Newcastle,Placer,(916) 259-2832,http://www.newcastle.k12.ca.us,7,K-12
Newhall School District,Valencia,Los Angeles,(661) 291-4000,http://www.newhallschooldistrict.net,10,K-6
Newport-Mesa Unified School District,Costa Mesa,Orange,(714) 424-5000,http://www.nmusd.us,33,PK-12
Nevada City Elementary School District,Nevada City,Nevada,(530) 265-1820,http://www.ncsd.k12.ca.us,4,PK-8
Needles Unified School District,Needles,San Bernardino,(760) 326-3891,http://www.needlesusd.org,6,K-12
New Hope Elementary School District,Thornton,San Joaquin,(209) 794-2376,,1,K-8
Nevada County Office Of Education School District,Grass Valley,Nevada,(530) 478-6400,http://www.nevco.org,11,PK-12
Natomas Unified School District,Sacramento,Sacramento,(916) 567-5400,http://www.natomas.k12.ca.us,20,K-12
National Elementary School District,National City,San Diego,(619) 336-7500,http://nsd.us,12,PK-8
New Haven Unified School District,Union City,Alameda,(510) 471-1100,http://www.nhusd.k12.ca.us,14,K-12
Nevada Joint Union High School District,Grass Valley,Nevada,(530) 273-3351,http://www.njuhsd.com,8,9-12
Napa County Office Of Education School District,Napa,Napa,(707) 253-6810,http://www.napacoe.org,3,PK-12
Napa County Rop School District,Napa,Napa,(707) 253-6831,,1,10-12
Mulberry Elementary School District,Brawley,Imperial,(760) 344-8600,,1,91
Muroc Joint Unified School District,North Edwards,Kern,(760) 769-4821,,5,2115
Murrieta Valley Unified School District,Murrieta,Riverside,(951) 696-1600,http://www.murrieta.k12.ca.us,20,K-12
Mt. Shasta Union Elementary School District,Mount Shasta,Siskiyou,(530) 926-6007,http://mswusd-ca.schoolloop.com/,2,K-8
Mupu Elementary School District,Santa Paula,Ventura,(805) 525-0422,http://www.mupu.k12.ca.us,1,K-8
Napa Valley Unified School District,Napa,Napa,(707) 253-3715,http://www.nvusd.org,33,PK-12
Mountain Valley Unified School District,Hayfork,Trinity,(530) 628-5265,http://www.mvusd.us,5,K-12
Mt. Baldy Joint Elementary School District,Mount Baldy,San Bernardino,(909) 985-0991,http://www.mtbaldy.k12.ca.us,1,K-8
Mountain View Elementary School District,Ontario,San Bernardino,(626) 652-4000,http://www.mtviewschools.com,12,K-8
Mountain View Elementary School District,El Monte,Los Angeles,(626) 652-4000,http://www.mtviewschools.com,12,K-8
Mt. Diablo Unified School District,Concord,Contra Costa,(925) 682-8000,http://www.mdusd.org,54,K-12
Mountain View-Los Altos Union High School District,Mountain View,Santa Clara,(650) 940-4650,http://www.mvla.net,4,9-12
Mountain View Whisman  School District,Mountain View,Santa Clara,(650) 526-3552,http://www.mvwsd.org,13,PK-8
Mountain Union Elementary School District,Montgomery Creek,Shasta,(530) 337-6214,http://www.shastalink.k12.ca.us/muesd,1,K-8
Mount Pleasant Elementary School District,San Jose,Santa Clara,(408) 223-3710,http://www.mpesd.org,5,K-8
Morgan Hill Unified School District,Morgan Hill,Santa Clara,(408) 201-6023,http://www.mhu.k12.ca.us,15,K-12
Mountain Elementary School District,Soquel,Santa Cruz,(831) 475-6812,http://www.mountainesd.org,1,K-6
Morongo Unified School District,Twentynine Palms,San Bernardino,(760) 367-9191,http://www.morongo.k12.ca.us,17,PK-12
Moreno Valley Unified School District,Moreno Valley,Riverside,(951) 571-7500,http://www.mvusd.net,42,PK-12
Mother Lode Union Elementary School District,Placerville,El Dorado,(530) 622-6464,http://www.mlusd.net,2,K-8
Mountain Empire Unified School District,Pine Valley,San Diego,(619) 473-9022,http://meusd.k12.ca.us,18,PK-12
Mountain House Elementary School District,Byron,Alameda,(209) 835-2283,http://www.mtnhouse.k12.ca.us,1,K-8
Montecito Union Elementary School District,Santa Barbara,Santa Barbara,(805) 969-3249,http://www.montecitou.org,1,K-6
Montgomery Elementary School District,Cazadero,Sonoma,(707) 632-5221,,1,K-8
Monterey County Office Of Education School District,Salinas,Monterey,(831) 755-0300,http://www.monterey.k12.ca.us,6,K-12
Moorpark Unified School District,Moorpark,Ventura,(805) 378-6300,http://www.mrpk.org,13,K-12
Moraga Elementary School District,Moraga,Contra Costa,(925) 376-5943,,4,1773
Moreland School District,San Jose,Santa Clara,(408) 874-2901,http://www.moreland.org,7,K-8
Montebello Unified School District,Montebello,Los Angeles,(323) 887-7900,http://www.montebello.k12.ca.us,33,K-12
Monterey Peninsula Unified School District,Monterey,Monterey,(831) 645-1200,http://www.mpusd.k12.ca.us,26,PK-12
Monson-Sultana Joint Union Elementary School District,Dinuba,Tulare,(559) 591-1634,http://www.msschool.org,1,K-8
Montague Elementary School District,Montague,Siskiyou,(530) 459-3001,http://mes-mesd-ca.schoolloop.com,1,K-8
Monte Rio Union Elementary School District,Monte Rio,Sonoma,(707) 865-2266,http://www.monterioschool.org,1,K-8
Mojave Unified School District,Fellows,Kern,(661) 768-4344,,1,79
Monrovia Unified School District,Monrovia,Los Angeles,(626) 471-2010,http://www.monroviaschools.net,12,PK-12
Mono County Roc P School District,Bridgeport,Mono,(760) 932-7311,,1,9-12
Mono County Office Of Education School District,Bridgeport,Mono,(760) 934-0031,http://www.monocoe.org,6,"PK, 1-12"
Monroe Elementary School District,Fresno,Fresno,(559) 834-2895,http://www.fcoe.k12.ca.us/monroe/monroe.pdf,1,K-8
Modoc County Rop School District,Alturas,Modoc,(530) 233-7102,,1,9-12
Mojave Unified,Mojave,Kern,(661) 824-4001,,6,2734
Mission Union Elementary School District,Soledad,Monterey,(831) 678-3524,,1,K-8
Modoc Joint Unified School District,Alturas,Modoc,(530) 233-7201,http://www.modoc.k12.ca.us,7,K-12
Modesto City Elementary School District,Modesto,Stanislaus,(209) 576-4011,http://www.monet.k12.ca.us,26,K-8
Mission Valley Roc P School District,Fremont,Alameda,(510) 657-1865,http://www.mvrop.org,1,9-12
Modoc County Office Of Education School District,Alturas,Modoc,(530) 233-7101,http://www.modoccoe.k12.ca.us,1,PK-12
Modesto City High School District,Modesto,Stanislaus,(209) 576-4011,http://www.monet.k12.ca.us,10,6-12
Metro Education School District,San Jose,Santa Clara,(408) 723-6414,,1,11-12
Middletown Unified School District,Middletown,Lake,(707) 987-4100,,9,1677
Mill Valley Elementary School District,Mill Valley,Marin,(415) 389-7700,http://www.mvschools.org,6,PK-8
Mesa Union Elementary School District,Somis,Ventura,(805) 485-1411,http://www.mesaschool.org,2,K-12
Millville Elementary School District,Millville,Shasta,(530) 547-4471,http://www.millvilleschool.net,1,K-8
Millbrae Elementary School District,Millbrae,San Mateo,(650) 697-5693,http://www.millbraeschooldistrict.org,5,K-8
Meridian Elementary School District,Meridian,Sutter,(530) 696-2604,http://meridiantigers.com,4,K-12
Milpitas Unified School District,Milpitas,Santa Clara,(408) 635-2600,http://www.musd.org,14,K-12
Mission Trails Rop School District,Salinas,Monterey,(831) 753-4209,,1,9-12
Merced River Union Elementary School District,Winton,Merced,(209) 358-5679,http://www.mercedriver.k12.ca.us,1,PK-8
Mendota Unified School District,Mendota,Fresno,(559) 655-4942,http://www.musdaztecs.com,7,K-12
Merced Union High School District,Atwater,Merced,(209) 385-6412,http://www.muhsd.org,10,9-12
Merced County Office Of Education School District,Merced,Merced,(209) 381-6600,http://www.mcoe.org,6,K-12
Merced County Rop School District,Merced,Merced,(209) 381-6600,http://www.mcoe.org,1,11-12
Menifee Union Elementary School District,Menifee,Riverside,(951) 672-1851,http://www.menifeeusd.org,16,PK-12
Mendocino County Roc Rop School District,Ukiah,Mendocino,(707) 467-5123,,1,9-12
Merced City Elementary School District,Merced,Merced,(209) 385-6600,http://www.mcsd.k12.ca.us,19,K-8
Menlo Park City Elementary School District,Atherton,San Mateo,(650) 321-7140,http://www.mpcsd.org,4,K-8
Mendocino County Office Of Education School District,Ukiah,Mendocino,(707) 467-5000,http://www.mcoe.us,2,K-12
Mendocino Unified School District,Mendocino,Mendocino,(707) 937-5868,http://mendocinousd.org,6,K-12
Meadows Union Elementary School District,El Centro,Imperial,(760) 352-7512,,1,478
Mckittrick Elementary School District,Mckittrick,Kern,(661) 762-7303,,1,74
Mcswain Union Elementary School District,Merced,Merced,(209) 354-2700,http://www.mcswain.k12.ca.us,1,K-8
Mccabe Union Elementary School District,El Centro,Imperial,(760) 335-5200,,1,1237
Mcfarland Unified School District,Mcfarland,Kern,(661) 792-3081,http://www.mcfarlandusd.com,7,K-12
Mattole Unified School District,Petrolia,Humboldt,(707) 629-3311,,4,724
Mckinleyville Union Elementary School District,Mckinleyville,Humboldt,(707) 839-1549,,3,1131
Mccloud Union Elementary School District,Mccloud,Siskiyou,(530) 964-2133,http://mccloudelementary.webs.com/,1,K-8
Martinez Unified School District,Martinez,Contra Costa,(925) 335-5800,,10,4144
Maxwell Unified School District,Maxwell,Colusa,(530) 438-2052,http://www.maxwell.k12.ca.us,3,K-12
Marysville Joint Unified School District,Marysville,Yuba,(530) 741-6000,http://www.mjusd.com,23,K-12
Mariposa County Office Of Education School District,Mariposa,Mariposa,(209) 742-0250,http://www.mariposa.k12.ca.us,2,K-12
Marin County Office Of Education School District,San Rafael,Marin,(415) 472-4110,http://www.marinschools.org,2,K-12
Maricopa Unified School District,Maricopa,Kern,(661) 769-8231,,7,858
Marcum-Illinois Union Elementary School District,East Nicolaus,Sutter,(530) 656-2407,http://www.marcum-illinois.org,2,K-12
Mark Twain Union Elementary School District,Angels Camp,Calaveras,(209) 736-1855,http://www.mtwain.k12.ca.us,2,K-8
Mariposa County Unified School District,Mariposa,Mariposa,(209) 742-0250,http://www.mariposa.k12.ca.us,13,K-12
Marin County Rop School District,San Rafael,Marin,(415) 499-5892,,1,9-12
Maple Elementary School District,Shafter,Kern,(661) 746-4439,,1,275
Mark West Union Elementary School District,Santa Rosa,Sonoma,(707) 524-2970,http://www.mwusd.org,4,K-8
Maple Creek Elementary School District,Korbel,Humboldt,(707) 668-5596,,1,14
Manchester Union Elementary School District,Manchester,Mendocino,(707) 882-2374,http://www.mcoe.us/d/schools,1,K-8
Magnolia Union Elementary School District,Brawley,Imperial,(760) 344-2494,,1,131
Manteca Unified School District,Manteca,San Joaquin,(209) 825-3200,http://www.mantecausd.net,31,K-12
Mammoth Unified School District,Mammoth Lakes,Mono,(760) 934-6802,http://www.mammothusd.org,4,K-12
Manhattan Beach Unified School District,Manhattan Beach,Los Angeles,(310) 318-7345,http://www.mbusd.org,8,PK-12
Magnolia Elementary School District,Anaheim,Orange,(714) 761-5533,http://www.magnoliasd.org,9,PK-6
Manzanita Elementary School District,Gridley,Butte,(530) 846-5594,http://www.manzanitaelementaryschool.com,1,K-8
Madera Unified School District,Madera,Madera,(559) 675-4500,http://www.madera.k12.ca.us,32,K-12
Madera County Superintendent Of Schools School District,Madera,Madera,(559) 673-6051,http://www.maderacoe.k12.ca.us,4,K-12
Lucia Mar Unified School District,Arroyo Grande,San Luis Obispo,(805) 474-3000,http://www.lmusd.org,19,PK-12
Lucerne Elementary School District,Lucerne,Lake,(707) 274-5578,,1,216
Lost Hills Union Elementary School District,Lost Hills,Kern,(661) 797-2941,,2,597
Lowell Joint School District,Whittier,Los Angeles,(562) 943-0211,http://www.ljsd.org,6,PK-8
Lynwood Unified School District,Lynwood,Los Angeles,(310) 886-1600,http://www.lynwood.k12.ca.us,21,K-12
Luther Burbank School District,San Jose,Santa Clara,(408) 295-2450,http://www.lbsd.k12.ca.us,1,K-8
Los Olivos Elementary School District,Los Olivos,Santa Barbara,(805) 688-4025,http://www.sbceoportal.org/losolivos/,1,K-8
Los Nietos School District,Whittier,Los Angeles,(562) 692-0271,http://lnsd.net,4,K-8
Lucerne Valley Unified School District,Lucerne Valley,San Bernardino,(760) 248-6108,http://www.lucernevalleyusd.org,9,K-12
Los Gatos-Saratoga Joint Union High School District,Los Gatos,Santa Clara,(408) 354-2520,http://www.lgsuhsd.org,2,9-12
Los Angeles Unified Rocp School District,Los Angeles,Los Angeles,(213) 241-1000,,1,Ungraded
Los Angeles County Rop School District,Downey,Los Angeles,(562) 922-6850,,1,9-12
Los Molinos Unified School District,Los Molinos,Tehama,(530) 384-7826,http://www.lmusd.net,4,K-12
Los Banos Unified School District,Los Banos,Merced,(209) 826-3801,http://www.losbanosusd.k12.ca.us,16,PK-12
Los Gatos Union Elementary School District,Los Gatos,Santa Clara,(408) 335-2000,http://www.lgusd.org,5,K-8
Los Alamitos Unified School District,Los Alamitos,Orange,(562) 799-4700,http://www.losal.org,9,K-12
Loma Prieta Joint Union Elementary School District,Los Gatos,Santa Clara,(408) 353-1101,http://www.loma.k12.ca.us,2,K-8
Los Altos Elementary School District,Los Altos,Santa Clara,(650) 947-1150,http://www.lasdschools.org,10,PK-8
Long Beach Unified School District,Long Beach,Los Angeles,(562) 997-8000,http://www.lbschools.net,87,K-12
Lone Pine Unified School District,Lone Pine,Inyo,(760) 876-5579,,3,371
Loomis Union Elementary School District,Loomis,Placer,(916) 652-1800,http://www.loomis-usd.k12.ca.us,8,K-12
Long Beach Unified Rop School District,Long Beach,Los Angeles,(562) 595-8893,,1,10-12
Lompoc Unified School District,Lompoc,Santa Barbara,(805) 742-3300,http://www.lusd.org,18,K-12
Los Angeles County Office Of Education School District,Downey,Los Angeles,(562) 922-6111,http://www.lacoe.edu,25,K-12
Loleta Union Elementary School District,Loleta,Humboldt,(707) 733-5705,,1,248
Lodi Unified School District,Lodi,San Joaquin,(209) 331-7000,http://www.lodiusd.net,54,PK-12
Los Angeles Unified School District,Los Angeles,Los Angeles,(213) 241-1000,http://www.lausd.net,1032,PK-12
Live Oak Elementary School District,Santa Cruz,Santa Cruz,(831) 475-6333,http://www.losd-ca.schoolloop.com/,8,PK-12
Livingston Union School District,Livingston,Merced,(209) 394-5400,http://www.livingstonusd.org,5,PK-8
Live Oak Unified School District,Live Oak,Sutter,(530) 695-5400,http://www.lousd.k12.ca.us,6,K-12
Livermore Valley Joint Unified School District,Livermore,Alameda,(925) 606-3200,http://www.livermoreschools.com,19,PK-12
Lincoln Elementary School District,Petaluma,Marin,(707) 763-0045,,1,K-6
Little Shasta Elementary School District,Montague,Siskiyou,(530) 459-3269,,1,K-6
Little Lake City Elementary School District,Santa Fe Springs,Los Angeles,(562) 868-8241,http://www.littlelake.k12.ca.us,9,K-8
Linns Valley-Poso Flat Union School District,Glennville,Kern,(661) 536-8811,,1,24
Liberty Union High School District,Brentwood,Contra Costa,(925) 634-2166,,6,7604
Lincoln Unified School District,Stockton,San Joaquin,(209) 953-8700,http://www.lusd.net,14,PK-12
Lindsay Unified School District,Lindsay,Tulare,(559) 562-5111,http://www.lindsay.k12.ca.us,11,PK-12
Linden Unified School District,Linden,San Joaquin,(209) 887-3894,http://www.lindenusd.com,7,K-12
Lemoore Union High School District,Lemoore,Kings,(559) 924-6610,,5,2254
Lewiston Elementary School District,Lewiston,Trinity,(530) 778-3984,http://www.lewistonesd.com,1,K-8
Liberty Elementary School District,Tulare,Tulare,(707) 795-4380,http://www.libertysd.org,4,K-12
Leggett Valley Unified School District,Leggett,Mendocino,(707) 925-6285,http://www.leggett.k12.ca.us,4,K-12
Liberty Elementary School District,Petaluma,Sonoma,(707) 795-4380,http://www.libertysd.org,4,K-12
Lennox School District,Lennox,Los Angeles,(310) 695-4000,http://www.lennox.k12.ca.us,11,K-12
Lemoore Union Elementary School District,Lemoore,Kings,(559) 924-6800,,7,3282
Lemon Grove School District,Lemon Grove,San Diego,(619) 825-5600,http://www.lgsd.k12.ca.us,6,PK-8
Lassen Union High School District,Susanville,Lassen,(530) 257-5134,http://district.lassenhigh.org,3,7-12
Le Grand Union High School District,Le Grand,Merced,(209) 389-9403,http://www.lghs.k12.ca.us,2,9-12
Laytonville Unified School District,Laytonville,Mendocino,(707) 984-6414,http://layt.k12.ca.us,5,K-12
Latrobe School District,Shingle Springs,El Dorado,(530) 677-0260,http://www.latrobeschool.com,2,K-8
Lassen View Union Elementary School District,Los Molinos,Tehama,(530) 527-5162,http://www.lassenview.org,1,K-8
Le Grand Union Elementary School District,Le Grand,Merced,(209) 389-4515,http://www.legrand.k12.ca.us,1,K-8
Laton Joint Unified School District,Laton,Fresno,(559) 922-4015,http://www.laton.k12.ca.us,3,K-12
Lawndale Elementary School District,Lawndale,Los Angeles,(310) 973-1300,http://www.lawndale.k12.ca.us,10,PK-12
Lassen County Office Of Education School District,Susanville,Lassen,(530) 257-2196,http://www.lcoe.org,1,K-12
Lassen Rop School District,Susanville,Lassen,(530) 252-1673,,1,11-12
Larkspur-Corte Madera School District,Larkspur,Marin,(415) 927-6960,http://www.lcmschools.org,3,PK-8
Lamont Elementary School District,Lamont,Kern,(661) 845-0751,,4,2842
Las Lomitas Elementary School District,Menlo Park,San Mateo,(650) 854-2880,http://www.llesd.k12.ca.us,2,K-8
Lakeside Union School District,Bakersfield,Kern,(661) 836-6658,,2,1316
Lancaster Elementary School District,Lancaster,Los Angeles,(661) 948-4661,http://www.lancsd.org,24,PK-8
Las Virgenes Unified School District,Calabasas,Los Angeles,(818) 880-4000,http://www.lvusd.org,17,PK-12
Lammersville Joint Unified School District,Mountain House,San Joaquin,(209) 836-7400,http://www.lammersvilleschooldistrict.net,7,K-12
Lake County Rop School District,Lakeport,Lake,,,1,9-12
Lake Elementary School District,Orland,Glenn,(530) 865-1255,http://www.lakeschool.org,1,K-8
Lake Elsinore Unified School District,Lake Elsinore,Riverside,(951) 253-7000,http://www.leusd.k12.ca.us,26,PK-12
Lakeside Union Elementary School District,Lakeside,San Diego,(559) 582-2868,,1,319
Lake Tahoe Unified School District,South Lake Tahoe,El Dorado,(530) 541-2850,http://www.ltusd.org,8,K-12
Lakeport Unified School District,Lakeport,Lake,(707) 262-3000,,6,1570
Lakeside Union Elementary School District,Hanford,Kings,(559) 582-2868,,1,319
Lakeside Joint School District,Los Gatos,Santa Clara,(408) 354-2372,http://www.lakesidelosgatos.org,1,K-5
La Puente Valley Rop School District,La Puente,Los Angeles,(626) 810-3300,http://www.lpvrop.org,1,9-12
Laguna Joint Elementary School District,Petaluma,Marin,(707) 762-6051,http://www.lagunaschool.org,1,K-6
Lagunitas Elementary School District,San Geronimo,Marin,(415) 488-4118,http://www.lagunitas.org,2,K-8
Lagunita Elementary School District,Salinas,Monterey,(831) 449-2800,,1,K-8
Lafayette Elementary School District,Lafayette,Contra Costa,(925) 927-3500,,5,3329
Lake County Office Of Education School District,Lakeport,Lake,(707) 262-4100,http://www.lake-coe.k12.ca.us,2,K-12
Laguna Beach Unified School District,Laguna Beach,Orange,(949) 497-7700,http://www.lbusd.org,5,K-12
La Mesa-Spring Valley School District,La Mesa,San Diego,(619) 668-5700,http://www.lmsvsd.org,24,K-8
La Canada Unified School District,La Canada,Los Angeles,(818) 952-8304,http://www.lcusd.net,4,K-12
Klamath-Trinity Joint Unified School District,Hoopa,Humboldt,(530) 625-5600,,7,1070
La Habra City Elementary School District,La Habra,Orange,(562) 690-2305,http://www.lhcsd.k12.ca.us,9,K-8
Knights Ferry Elementary School District,Knights Ferry,Stanislaus,(209) 881-3382,http://www.knightsferry.k12.ca.us,1,K-8
Kneeland Elementary School District,Kneeland,Humboldt,(707) 442-5472,,1,30
La Honda-Pescadero Unified School District,Pescadero,San Mateo,(650) 879-0286,http://www.lhpusd.com,3,K-12
Knightsen Elementary School District,Knightsen,Contra Costa,(925) 625-0073,,2,473
Konocti Unified School District,Lower Lake,Lake,(707) 994-6475,,12,3099
Kings County Rop School District,Lemoore,Kings,(559) 589-7026,,1,10-12
Kirkwood Elementary School District,Corning,Tehama,(530) 824-7773,http://www.kirkwoodschoolca.org,1,K-8
Kingsburg Joint Union High School District,Kingsburg,Fresno,(559) 897-7721,http://khsvikings.com,3,9-12
Kings River Union Elementary School District,Kingsburg,Tulare,(559) 897-7209,http://www.kingsriverelementary.org,1,K-8
Kit Carson Union Elementary School District,Hanford,Kings,(559) 582-2843,,4,414
Kingsburg Elementary Charter School District,Kingsburg,Fresno,(559) 897-2331,http://www.kesd.org,7,K-8
Klamath River Union Elementary School District,Horse Creek,Siskiyou,(530) 496-3406,http://www.sisnet.ssku.k12.ca.us/~klamaftp,1,K-8
Kings River-hardwick Union Elementary School District,Hanford,Kings,(559) 584-4475,,1,718
Kern High Roc School District,Bakersfield,Kern,(661) 831-3327,,1,9-12
Kern Union High School District,Bakersfield,Kern,(661) 827-3100,http://www.kernhigh.org,25,9-12
Kings County Office Of Education School District,Hanford,Kings,(559) 584-1441,http://www.kings.k12.ca.us,2,PK-12
Keyes Union School District,Keyes,Stanislaus,(209) 669-2921,,3,K-12
Kernville Union Elementary School District,Lake Isabella,Kern,(760) 379-3651,,3,786
King City Union School District,King City,Monterey,(831) 385-2940,http://www.kcusd.org,6,PK-8
Kern County Rop School District,Bakersfield,Kern,(661) 824-9313,http://www.kern.org,1,9-12
Kings Canyon Joint Unified School District,Reedley,Fresno,(559) 305-7005,http://www.kcusd.com,24,PK-12
Kentfield Elementary School District,Kentfield,Marin,(415) 458-5130,http://www.kentfieldschools.org/district,2,K-8
Kelseyville Unified School District,Kelseyville,Lake,(707) 279-1511,,6,1726
Kerman Unified School District,Kerman,Fresno,(559) 846-5383,http://www.kermanusd.com,7,K-12
Kern County Office Of Education School District,Bakersfield,Kern,(661) 636-4621,http://www.kern.org,6,K-12
Keppel Union Elementary School District,Pearblossom,Los Angeles,(661) 944-2155,http://www.keppel.k12.ca.us,8,K-12
Kashia Elementary School District,Stewarts Point,Sonoma,(415) 328-4076,,1,K-8
Kenwood  School District,Kenwood,Sonoma,(707) 833-2500,http://www.kenwood.k12.ca.us,1,K-6
Junction City Elementary School District,Junction City,Trinity,(530) 623-6381,http://www.junctioncityschool.org,1,K-8
Julian Union Elementary School District,Julian,San Diego,(760) 765-0661,http://www.sdcoe.k12.ca.us/districts/julianel,6,K-12
Junction Elementary School District,Palo Cedro,Shasta,(530) 547-3274,http://www.junctionesd.net,1,K-8
Jurupa Unified School District,Jurupa Valley,Riverside,(951) 360-4160,http://www.jusd.k12.ca.us,28,PK-12
Johnstonville Elementary School District,Susanville,Lassen,(530) 257-2471,http://www.johnstonville-ca.schoolloop.com,1,K-8
Julian Union High School District,Julian,San Diego,(760) 765-0606,http://www.juhsd.org,1,9-12
John Swett Unified School District,Rodeo,Contra Costa,(510) 245-4300,,4,1655
Junction Elementary School District,Somes Bar,Siskiyou,(530) 547-3274,http://www.junctionesd.net,1,K-8
Jacoby Creek Elementary School District,Bayside,Humboldt,(707) 822-4896,,1,443
Jamestown Elementary School District,Jamestown,Tuolumne,(209) 984-4058,http://www.jamestown.k12.ca.us,2,K-8
Jefferson Elementary School District,Paicines,San Benito,(650) 991-1000,http://www.jsd.k12.ca.us,15,K-12
Jamul-Dulzura Union Elementary School District,Jamul,San Diego,(619) 669-7700,http://www.jdusd.net,4,K-12
Jefferson Union High School District,Daly City,San Mateo,(650) 550-7900,http://www.juhsd.net,7,9-12
Janesville Union Elementary School District,Janesville,Lassen,(530) 253-3660,http://www.janesvilleschool.org,1,K-8
Jefferson Elementary School District,Daly City,San Mateo,(650) 991-1000,http://www.jsd.k12.ca.us,15,K-12
Jefferson Elementary School District,Tracy,San Joaquin,(650) 991-1000,http://www.jsd.k12.ca.us,15,K-12
Indian Springs Elementary School District,Big Bend,Shasta,(530) 337-6219,http://www.indianspringsesd.org,1,K-8
Imperial Valley Rop School District,El Centro,Imperial,(760) 482-2600,,1,9-12
Imperial Unified School District,Imperial,Imperial,(760) 355-3200,,5,3695
Irvine Unified School District,Irvine,Orange,(949) 936-5000,http://www.iusd.org,43,PK-12
Inyo County Office Of Education School District,Independence,Inyo,(760) 878-2426,http://www.inyo.k12.ca.us,5,"PK, 2-12"
Inglewood Unified School District,Inglewood,Los Angeles,(310) 419-2700,http://www.iusd.net,27,K-12
Indian Diggings Elementary School District,Somerset,El Dorado,(530) 620-6546,http://www.indiandiggingsschool.com,1,K-8
Island Union Elementary School District,Lemoore,Kings,(559) 924-6424,,1,309
Huntington Beach Union High School District,Huntington Beach,Orange,(714) 903-7000,http://www.hbuhsd.edu,9,9-12
Humboldt County Rop School District,Eureka,Humboldt,(707) 445-7018,,1,10-12
Imperial County Office Of Education School District,El Centro,Imperial,(760) 312-6164,http://www.icoe.org,3,K-12
Humboldt County Office Of Education School District,Eureka,Humboldt,(707) 445-7000,http://www.humboldt.k12.ca.us,5,K-12
Huntington Beach City Elementary School District,Huntington Beach,Orange,(714) 378-2021,http://www.hbcsd.us,10,K-8
Hughson Unified School District,Hughson,Stanislaus,(209) 883-4428,http://www.hughson.k12.ca.us,6,K-12
Hydesville Elementary School District,Hydesville,Humboldt,(707) 768-3610,,1,156
"Igo, Ono, Platina Union Elementary School District",Igo,Shasta,(530) 396-2841,http://igoono.echalk.com,1,K-8
Hot Springs Elementary School District,California Hot Springs,Tulare,(661) 548-6544,http://www.tcoe.net/districts/hotsprings.shtm,1,K-8
Howell Mountain Elementary School District,Angwin,Napa,(707) 965-2423,http://www.hmesd.org,1,K-8
Hughes-Elizabeth Lakes Union Elementary School District,Lake Hughes,Los Angeles,(661) 724-1231,http://www.heluesd.org,1,K-8
Hornbrook Elementary School District,Hornbrook,Siskiyou,(530) 475-3598,http://www.hornbrookschool.org,1,K-8
Hope Elementary School District,Santa Barbara,Santa Barbara,(559) 784-1064,http://www.vip.ocsnet.net/~hopeschool/,1,K-8
Hope Elementary School District,Porterville,Tulare,(559) 784-1064,http://www.vip.ocsnet.net/~hopeschool/,1,K-8
Hueneme Elementary School District,Port Hueneme,Ventura,(805) 488-3588,http://www.huensd.k12.ca.us,11,K-8
Horicon Elementary School District,Annapolis,Sonoma,(707) 886-5322,http://horiconesd.org/,1,K-8
Hickman Community Charter School District,Hickman,Stanislaus,(209) 874-1816,http://www.hickmanschools.org,3,K-8
Hilmar Unified School District,Hilmar,Merced,(209) 667-5701,http://www.hilmar.k12.ca.us,6,K-12
Holtville Unified School District,Holtville,Imperial,(760) 356-2974,,7,1596
Hollister School District,Hollister,San Benito,(831) 630-6300,http://www.hesd.org,11,K-8
Hermosa Beach City Elementary School District,Hermosa Beach,Los Angeles,(310) 937-5877,http://www.hbcsd.org,2,K-8
Hillsborough City Elementary School District,Hillsborough,San Mateo,(650) 342-5193,http://www.hcsd.k12.ca.us,4,K-8
Hemet Unified School District,Hemet,Riverside,(951) 765-5100,http://www.hemetusd.org,29,K-12
Hesperia Unified School District,Hesperia,San Bernardino,(760) 244-4411,http://www.hesperia.org,31,PK-12
Hart Rop School District,Santa Clarita,Los Angeles,(661) 259-0033,,1,9-12
Heber Elementary School District,Heber,Imperial,(760) 337-6530,,2,1139
Hart-Ransom Union Elementary School District,Modesto,Stanislaus,(209) 523-9996,http://www.hartransom.org,2,K-12
Helendale Elementary School District,Helendale,San Bernardino,(760) 952-1180,http://www.helendalesd.org,8,K-12
Harmony Union Elementary School District,Occidental,Sonoma,(707) 874-3280,http://www.harmonyusd.org,3,K-12
Healdsburg Unified School District,Healdsburg,Sonoma,(707) 431-3488,http://www.husd.com,5,K-12
Hawthorne School District,Hawthorne,Los Angeles,(310) 676-2276,http://www.hawthorne.k12.ca.us,11,K-12
Hayward Unified School District,Hayward,Alameda,(510) 784-2600,http://www.husd.k12.ca.us,38,PK-12
Happy Camp Union Elementary School District,Happy Camp,Siskiyou,(530) 493-2267,http://hces-ca.schoolloop.com/,1,K-8
Hanford Joint Union High School District,Hanford,Kings,(559) 583-5901,,7,3803
Happy Valley Union Elementary School District,Anderson,Shasta,(530) 357-2134,http://www.hvesd.org,3,K-8
Hamilton Unified School District,Hamilton City,Glenn,(530) 826-3261,http://www.husdschools.org,5,K-12
Hacienda La Puente Unified School District,City Of Industry,Los Angeles,(626) 933-1000,http://www.hlpusd.k12.ca.us,39,PK-12
Hanford Elementary School District,Hanford,Kings,(559) 585-3600,,12,5667
Happy Valley Elementary School District,Santa Cruz,Santa Cruz,(831) 429-1456,http://www.hvesd.com,1,K-6
Gustine Unified School District,Gustine,Merced,(209) 854-3784,http://www.gustineusd.org,6,PK-12
Guerneville Elementary School District,Guerneville,Sonoma,(707) 887-7762,http://www.guernevilleschool.org,2,K-12
Guadalupe Union Elementary School District,Guadalupe,Santa Barbara,(805) 343-2114,http://www.guadusd.org/,3,PK-8
Greenfield Union Elementary School District,Greenfield,Monterey,(831) 674-2840,http://www.greenfield.k12.ca.us,5,K-8
Gridley Unified School District,Gridley,Butte,(530) 846-4721,http://www.gusd.org,5,K-12
Grossmont Union High School District,El Cajon,San Diego,(619) 644-8000,http://www.guhsd.net/,21,9-12
Greenfield Union School District,Bakersfield,Kern,(661) 837-6000,,12,8512
Grenada Elementary School District,Grenada,Siskiyou,(530) 436-2233,http://grenada.k12.ca.us,1,K-8
Green Point Elementary School District,Blue Lake,Humboldt,(707) 668-5921,,1,9
Grass Valley Elementary School District,Grass Valley,Nevada,(530) 273-4483,http://www.gvsd.us,5,PK-8
Gratton Elementary School District,Denair,Stanislaus,(209) 632-0505,,2,K-8
Gravenstein Union Elementary School District,Sebastopol,Sonoma,(707) 823-7008,http://www.grav.k12.ca.us,4,K-8
Grant Elementary School District,Redding,Shasta,(530) 243-0561,http://www.grantesd.k12.ca.us,1,K-8
Goleta Union Elementary School District,Goleta,Santa Barbara,(805) 681-1200,http://www.goleta.k12.ca.us,10,PK-6
Gonzales Unified School District,Gonzales,Monterey,(831) 675-0100,http://www.gonzales.k12.ca.us,5,K-12
Gorman Joint School District,Gorman,Los Angeles,(661) 248-6441,http://gorman.k12.ca.us/,2,K-12
Graves Elementary School District,Salinas,Monterey,(831) 422-6392,http://schools.monterey.k12.ca.us/~graves/,1,K-8
Gold Trail Union Elementary School District,Placerville,El Dorado,(530) 626-3194,http://www.gtusd.org,2,K-8
Golden Valley Unified School District,Madera,Madera,(559) 645-7500,http://www.gvusd.k12.ca.us,11,K-12
Glenn County Office Of Education School District,Willows,Glenn,(530) 934-6575,http://www.glenncoe.org,5,K-12
Golden Feather Union Elementary School District,Oroville,Butte,(530) 533-3833,http://www.gfusd.org,2,K-12
Gold Oak Union Elementary School District,Placerville,El Dorado,(530) 626-3150,http://www.gousd.org,2,K-8
Golden Plains Unified School District,San Joaquin,Fresno,(559) 693-1115,http://www.gpusd.org,6,K-12
Glendora Unified School District,Glendora,Los Angeles,(626) 963-1611,http://www.glendora.k12.ca.us,11,PK-12
Glenn County Rop School District,Willows,Glenn,(530) 934-6575,,1,9-12
Gazelle Union Elementary School District,Gazelle,Siskiyou,(530) 435-2321,http://www.sisnet.ssku.k12.ca.us/~gazelftp,1,K-8
Geyserville Unified School District,Geyserville,Sonoma,(707) 857-3592,http://www.gusd.com,3,K-12
Gerber Union Elementary School District,Gerber,Tehama,(530) 385-1041,http://www.gerberschool.org,1,K-8
General Shafter Elementary School District,Bakersfield,Kern,(661) 837-1931,,1,135
Garvey Elementary School District,Rosemead,Los Angeles,(626) 307-3444,http://www.garvey.k12.ca.us,10,K-8
Gilroy Unified School District,Gilroy,Santa Clara,(408) 847-2700,http://www.gusd.k12.ca.us,18,PK-12
Glendale Unified School District,Glendale,Los Angeles,(818) 241-3111,http://www.gusd.net,34,PK-12
Gateway Unified School District,Redding,Shasta,(530) 245-7900,http://www.gateway-schools.org,9,K-12
Garfield Elementary School District,Eureka,Humboldt,(707) 442-5471,,1,61
Galt Joint Union High School District,Galt,Sacramento,(209) 745-0249,http://www.ghsd.k12.ca.us/district,4,9-12
Fruitvale Elementary School District,Bakersfield,Kern,(661) 589-3830,,5,3316
Fullerton Joint Union High School District,Fullerton,Orange,(714) 870-2800,http://www.fjuhsd.k12.ca.us,8,9-12
Fullerton Elementary School District,Fullerton,Orange,(714) 447-7400,http://www.fullertonsd.org/,20,K-8
Garden Grove Unified School District,Garden Grove,Orange,(714) 663-6133,http://www.ggusd.us,66,PK-12
Fresno Unified School District,Fresno,Fresno,(559) 457-3000,http://www.fresnounified.org,108,PK-12
Galt Joint Union Elementary School District,Galt,Sacramento,(209) 744-4545,http://www.galt.k12.ca.us,6,K-8
French Gulch-Whiskeytown Elementary School District,French Gulch,Shasta,(530) 359-2151,http://fgws-fgws-ca.schoolloop.com,1,K-8
Fremont Union High School District,Sunnyvale,Santa Clara,(408) 522-2200,http://www.fuhsd.org,7,9-12
Fresno County Office Of Education School District,Fresno,Fresno,(559) 265-3000,http://www.fcoe.org,8,PK-12
Franklin-Mckinley Elementary School District,San Jose,Santa Clara,(408) 283-6006,http://www.fmsd.org,22,K-8
Franklin Elementary School District,Yuba City,Sutter,(530) 822-5151,http://www.franklin.k12.ca.us,1,K-8
Fremont Unified School District,Fremont,Alameda,(510) 657-2350,http://www.fremont.k12.ca.us,44,PK-12
Freshwater Elementary School District,Eureka,Humboldt,(707) 442-2969,,2,326
Fresno Rop School District,Fresno,Fresno,(559) 497-3860,,1,9-12
Fortuna Union High School District,Fortuna,Humboldt,(707) 725-4461,,4,1151
Fowler Unified School District,Fowler,Fresno,(559) 834-6080,http://www.fowlerusd.org,9,K-12
Fortuna Elementary School District,Fortuna,Humboldt,(707) 725-2293,http://www.humboldt.k12.ca.us/fortuna_sd/,5,K-8
Fort Bragg Unified School District,Fort Bragg,Mendocino,(707) 961-2850,http://www.fbusd.us,9,PK-12
Forty-Niner Rop School District,Auburn,Placer,(530) 889-5940,,1,10-12
Fort Sage Unified School District,Herlong,Lassen,(530) 827-2129,,5,K-12
Fort Ross Elementary School District,Cazadero,Sonoma,(707) 847-3390,http://www.fortrossschool.org,1,K-8
Fountain Valley Elementary School District,Fountain Valley,Orange,(714) 843-3200,http://www.fvsd.us,10,K-8
Forks Of Salmon Elementary School District,Forks Of Salmon,Siskiyou,(530) 462-4762,http://www.sisnet.ssku.k12.ca.us/~forksftp,1,K-8
Forestville Union Elementary School District,Forestville,Sonoma,(707) 887-9767,http://www.forestvilleusd.org,2,K-6
Firebaugh-Las Deltas Unified School District,Firebaugh,Fresno,(559) 659-1476,http://www.fldusd.org,7,K-12
Foresthill Union Elementary School District,Foresthill,Placer,(530) 367-2966,http://www.fusd.org,1,K-8
Flournoy Union Elementary School District,Flournoy,Tehama,(530) 833-5331,http://www.flournoyschool.org,1,K-8
Fontana Unified School District,Fontana,San Bernardino,(909) 357-5600,http://www.fusd.net,45,K-12
Fillmore Unified School District,Fillmore,Ventura,(805) 524-6000,http://www.fillmoreusd.org,10,PK-12
Farmersville Unified School District,Farmersville,Tulare,(559) 592-2010,http://www.farmersville.k12.ca.us,6,K-12
Fieldbrook Elementary School District,Mckinleyville,Humboldt,(707) 839-3201,,1,128
Ferndale Unified School District,Ferndale,Humboldt,(707) 786-5900,,2,484
Fall River Joint Unified School District,Burney,Shasta,(530) 335-4538,http://www.frjusd.org,11,K-12
Fallbrook Union High School District,Fallbrook,San Diego,(760) 723-6332,http://www.fuhsd.net,3,9-12
Fallbrook Union Elementary School District,Fallbrook,San Diego,(760) 731-5400,http://www.fuesd.k12.ca.us,11,PK-8
Feather Falls Union Elementary School District,Oroville,Butte,(530) 589-1810,http://www.bcoe.org/home/districts/featherfalls,2,K-12
Folsom-Cordova Unified School District,Rancho Cordova,Sacramento,(916) 294-9025,http://www.fcusd.org,35,PK-12
Eureka Union School District,Granite Bay,Placer,(916) 791-4939,http://www.eureka-usd.k12.ca.us,7,PK-8
Evergreen Elementary School District,San Jose,Santa Clara,(408) 270-6800,http://www.eesd.org,18,K-8
Evergreen Union School District,Cottonwood,Tehama,(530) 347-3411,http://www.evergreenusd.org,6,K-12
Eureka City Schools School District,Eureka,Humboldt,(707) 441-2414,,10,3841
Exeter Unified School District,Exeter,Tulare,(559) 592-9421,,7,K-12
Fairfax Elementary School District,Bakersfield,Kern,(661) 366-7221,,4,2290
Etiwanda Elementary School District,Etiwanda,San Bernardino,(909) 899-2451,http://www.etiwanda.k12.ca.us,18,K-8
Fairfield-Suisun Unified School District,Fairfield,Solano,(707) 399-5000,http://www.fsusd.org,31,PK-12
Empire Union Elementary School District,Modesto,Stanislaus,(209) 521-2800,http://www.empire.k12.ca.us,6,K-8
Escondido Union High School District,Escondido,San Diego,(760) 291-3200,http://www.euhsd.org,9,6-12
Esparto Unified School District,Esparto,Yolo,(530) 787-3446,http://www.espartok12.org,4,K-12
Escondido Union School District,Escondido,San Diego,(760) 432-2400,http://www.eusd.org,26,K-8
Encinitas Union Elementary School District,Encinitas,San Diego,(760) 944-4300,http://www.eusd.net/pages/default.aspx,11,PK-6
Escalon Unified School District,Escalon,San Joaquin,(209) 838-3591,http://www.escalonusd.org,8,K-12
Emery Unified School District,Emeryville,Alameda,(510) 601-4000,http://www.emeryusd.k12.ca.us,3,PK-12
Enterprise Elementary School District,Redding,Shasta,(530) 224-4100,http://www.eesd.net,9,K-12
Elkins Elementary School District,Paskenta,Tehama,(530) 833-5582,,1,K-8
Elverta Joint Elementary School District,Elverta,Sacramento,(916) 991-2244,http://www.ejesd.net,3,K-12
El Nido Elementary School District,El Nido,Merced,(209) 385-8420,http://www.elnidoschool.org,2,PK-8
Elk Grove Unified School District,Elk Grove,Sacramento,(916) 686-5085,http://www.egusd.net,68,K-12
El Segundo Unified School District,El Segundo,Los Angeles,(310) 615-2650,http://www.elsegundousd.com,5,K-12
El Monte Union High School District,El Monte,Los Angeles,(626) 444-9005,http://www.emuhsd.k12.ca.us,8,9-12
El Tejon Unified School District,Lebec,Kern,(661) 248-6247,,3,1020
Elk Hills Elementary School District,Tupman,Kern,(661) 765-7431,,1,200
El Rancho Unified School District,Pico Rivera,Los Angeles,(562) 942-1500,http://erusd.org,16,PK-12
Eden Area Rop School District,Hayward,Alameda,(510) 293-2900,,1,10-12
El Centro Elementary School District,El Centro,Imperial,(760) 352-5712,,15,5985
Edison Elementary School District,Bakersfield,Kern,(661) 363-5394,,2,1122
El Dorado County Office Of Education School District,Placerville,El Dorado,(530) 622-7130,http://www.edcoe.org,5,PK-12
El Dorado Union High School District,Placerville,El Dorado,(530) 622-5081,http://www.eduhsd.k12.ca.us,6,8-12
El Monte City School District,El Monte,Los Angeles,(626) 453-3700,http://www.emcsd.org,15,K-8
Eastside Union Elementary School District,Lancaster,Los Angeles,(661) 952-1200,http://www.eastside.k12.ca.us,6,K-8
Eastern Sierra Unified School District,Bridgeport,Mono,(760) 932-7443,http://www.esusd.org,6,K-12
East San Gabriel Valley Rop School District,West Covina,Los Angeles,(626) 472-5121,,1,9-12
Dunsmuir Joint Union High School District,Dunsmuir,Siskiyou,(530) 235-4835,http://www.dunsmuirhigh.k12.ca.us,3,9-12
Earlimart Elementary School District,Earlimart,Tulare,(661) 849-4241,http://www.earlimart.k12.ca.us,4,K-8
East Whittier City Elementary School District,Whittier,Los Angeles,(562) 907-5900,http://www.ewcsd.org,13,PK-8
East Side Union High School District,San Jose,Santa Clara,(408) 347-5000,http://www.esuhsd.org,30,K-12
Dunsmuir Elementary School District,Dunsmuir,Siskiyou,(530) 235-4828,http://www.sisnet.ssku.k12.ca.us/~desftp,1,K-8
East Nicolaus Joint Union High School District,Nicolaus,Sutter,(530) 656-2255,http://www.eastnicolaus.k12.ca.us,1,9-12
Durham Unified School District,Durham,Butte,(530) 895-4675,http://www.durhamunified.org,3,K-12
Dry Creek Joint Elementary School District,Roseville,Placer,(916) 770-8800,http://www.drycreek.k12.ca.us,9,K-8
Dos Palos Oro Loma Joint Unified School District,Dos Palos,Merced,(209) 392-0200,http://www.dpol.net,8,PK-12
Downey Unified School District,Downey,Los Angeles,(562) 469-6500,http://www.dusd.net,22,K-12
Douglas City Elementary School District,Douglas City,Trinity,(530) 623-6350,http://www.tcoe.trinity.k12.ca.us/~dc,1,K-8
Dunham Elementary School District,Petaluma,Sonoma,(707) 795-5050,http://www.dunhamsd.org,2,K-6
Duarte Unified School District,Duarte,Los Angeles,(626) 599-5000,http://www.duarte.k12.ca.us,10,K-12
Ducor Union Elementary School District,Ducor,Tulare,(559) 534-2261,http://ducorschool.com,1,K-8
Dublin Unified School District,Dublin,Alameda,(925) 828-2551,http://www.dublinusd.org,13,K-12
Dinuba Unified School District,Dinuba,Tulare,(559) 595-7200,http://www.dinuba.sharpschool.net,11,K-12
Desert Center Unified School District,Desert Center,Riverside,(760) 392-4217,http://dcusd-ca.schoolloop.com/,1,K-8
Denair Unified School District,Denair,Stanislaus,(209) 632-7514,http://www.dusd.k12.ca.us,5,K-12
Dixie Elementary School District,San Rafael,Marin,(415) 492-3700,http://www.dixieschooldistrict.org,4,K-8
Delphic Elementary School District,Montague,Siskiyou,(530) 842-3653,,1,K-8
Dixon Unified School District,Dixon,Solano,(707) 693-6300,http://www.dixonusd.org,8,K-12
Di Giorgio Elementary School District,Arvin,Kern,(661) 854-2604,,1,219
Del Norte County Rop School District,Crescent City,Del Norte,,,1,9-12
Delano Joint Union High School District,Delano,Kern,(661) 725-4000,http://www.djuhsd.org,5,9-12
Delano Union Elementary School District,Delano,Kern,(661) 721-5000,,12,7712
Del Norte County Office Of Education School District,Crescent City,Del Norte,(707) 464-0200,http://www.delnorte.k12.ca.us,2,K-12
Del Mar Union Elementary School District,San Diego,San Diego,(858) 755-9301,http://www.dmusd.org,8,K-6
Desert Sands Unified School District,La Quinta,Riverside,(760) 777-4200,http://www.dsusd.us/dsusd/,36,PK-12
Del Norte County Unified School District,Crescent City,Del Norte,(707) 464-0200,http://www.delnorte.k12.ca.us,11,K-12
Delhi Unified School District,Delhi,Merced,(209) 656-2000,http://www.delhi.k12.ca.us,5,K-12
Cuyama Joint Unified School District,New Cuyama,Santa Barbara,(661) 766-2482,http://www.cuyamaunified.org,6,K-12
Dehesa Elementary School District,El Cajon,San Diego,(619) 444-2161,http://www.dehesasd.net/,11,K-12
Cutler-Orosi Joint Unified School District,Orosi,Tulare,(559) 528-4763,http://www.cojusd.org,10,K-12
Curtis Creek Elementary School District,Sonora,Tuolumne,(209) 533-1083,http://www.ccreek.k12.ca.us,1,K-8
Cypress Elementary School District,Cypress,Orange,(714) 220-6900,http://www.cypsd.org,6,K-6
Cutten Elementary School District,Eureka,Humboldt,(707) 441-3900,,2,556
Davis Joint Unified School District,Davis,Yolo,(530) 757-5300,http://www.djusd.k12.ca.us/district,18,PK-12
Death Valley Unified School District,Shoshone,Inyo,(760) 852-4303,,4,63
Cuddeback Union Elementary School District,Carlotta,Humboldt,(707) 768-3372,,1,130
Cottonwood Union Elementary School District,Cottonwood,Shasta,(530) 347-3165,http://www.cwusd.com,4,PK-8
Covina-Valley Unified School District,Covina,Los Angeles,(626) 974-7000,http://www.cvusd.k12.ca.us,18,PK-12
Coronado Unified School District,Coronado,San Diego,(619) 522-8900,http://www.coronadousd.net,5,PK-12
Culver City Unified School District,Culver City,Los Angeles,(310) 842-4220,http://www.ccusd.org,10,K-12
Cupertino Union School District,Sunnyvale,Santa Clara,(408) 252-3000,http://www.cusdk8.org,25,PK-8
Cotati-Rohnert Park Unified School District,Rohnert Park,Sonoma,(707) 792-4722,http://www.crpusd.org,15,PK-12
Cucamonga Elementary School District,Rancho Cucamonga,San Bernardino,(909) 987-8942,http://www.cuca.k12.ca.us,4,K-8
Corning Union Elementary School District,Corning,Tehama,(530) 824-7700,http://www.corningelementary.org,6,K-8
Corcoran Joint Unified School District,Corcoran,Kings,(559) 992-8888,http://www.corcoranunified.com,9,K-12
Contra Costa County Office Of Education School District,Pleasant Hill,Contra Costa,(925) 942-3388,http://www.cocoschools.org,12,K-12
Corning Union High School District,Corning,Tehama,(530) 824-8000,http://www.corninghs.org/corninghsd/site/default.asp,3,9-12
Compton Unified School District,Compton,Los Angeles,(310) 639-4321,http://www.compton.k12.ca.us,40,PK-12
Contra Costa County Rop School District,Pleasant Hill,Contra Costa,(925) 942-3368,,1,9-12
Conejo Valley Unified School District,Thousand Oaks,Ventura,(805) 497-9511,http://www.conejousd.org,28,PK-12
Corona-Norco Unified School District,Norco,Riverside,(951) 736-5000,http://www.cnusd.k12.ca.us,54,K-12
Colton-Redlands-Yucaipa Rop School District,Redlands,San Bernardino,(909) 793-3115,,1,9-12
Columbine Elementary School District,Delano,Tulare,(661) 725-8501,http://www.tcoe.k12.ca.us/Districts/Columbine.shtm,1,K-8
Columbia Union School District,Columbia,Tuolumne,(209) 532-0202,http://www.columbia49er.k12.ca.us,1,K-8
Columbia Elementary School District,Redding,Shasta,(530) 223-1915,http://www.columbiasd.com,4,K-12
Colusa Unified School District,Colusa,Colusa,(530) 458-7791,http://www.colusa.k12.ca.us,5,K-12
Colusa County Office Of Education School District,Colusa,Colusa,(530) 458-0350,http://www.ccoe.net,2,K-12
Compton Unified Rop School District,Compton,Los Angeles,(310) 639-4321,,1,9-12
Colton Joint Unified School District,Colton,San Bernardino,(909) 580-5000,http://www.colton.k12.ca.us,29,PK-12
Coffee Creek Elementary School District,Coffee Creek,Trinity,(530) 266-3344,http://www.tcoek12.org/~ccschool,1,K-8
Colfax Elementary School District,Colfax,Placer,(530) 346-2202,http://www.colfax.k12.ca.us,1,K-8
Cold Spring Elementary School District,Santa Barbara,Santa Barbara,(805) 969-2678,http://www.coldspringschool.net,1,K-6
College Elementary School District,Santa Ynez,Santa Barbara,(805) 686-7300,http://www.collegeschooldistrict.org,3,K-8
Coalinga-Huron Unified School District,Coalinga,Fresno,(559) 935-7500,http://chusd.org,11,K-12
Coast Unified School District,Cambria,San Luis Obispo,(805) 927-3880,http://www.coastusd.org,4,K-12
Coachella Valley Unified School District,Thermal,Riverside,(760) 848-1000,http://www.cvusd.us,24,PK-12
Coastline Rop School District,Costa Mesa,Orange,(714) 979-1955,,1,9-12
Cienega Union Elementary School District,Hollister,San Benito,(831) 637-3821,http://www.sbcoe.k12.ca.us/cienega.html,1,K-8
Clay Joint Elementary School District,Kingsburg,Fresno,(559) 897-4185,http://www.clayschool.k12.ca.us,1,K-8
Cinnabar Elementary School District,Petaluma,Sonoma,(707) 765-4345,http://www.cinnabar.k12.ca.us,2,K-8
Clear Creek Elementary School District,Grass Valley,Nevada,(530) 273-3664,http://www.clearcreekschool.org,1,K-8
Chowchilla Union High School District,Chowchilla,Madera,(559) 665-3662,http://www.chowchillahigh.k12.ca.us,2,9-12
Cloverdale Unified School District,Cloverdale,Sonoma,(707) 894-1920,http://www.cusd.org,5,K-12
Claremont Unified School District,Claremont,Los Angeles,(909) 398-0609,http://www.cusd.claremont.edu,13,K-12
Chula Vista Elementary School District,Chula Vista,San Diego,(619) 425-9600,http://www.cvesd.org,49,PK-12
Clovis Unified School District,Clovis,Fresno,(559) 327-9100,http://www.cusd.com,49,K-12
Chualar Union School District,Chualar,Monterey,(831) 679-2504,http://chualarusd.org/,1,K-8
Chowchilla Elementary School District,Chowchilla,Madera,(559) 665-8000,http://www.chowchillaelem.k12.ca.us,5,K-8
Chatom Union School District,Turlock,Stanislaus,(209) 664-8505,http://www.chatom.k12.ca.us,2,K-8
Chicago Park Elementary School District,Grass Valley,Nevada,(530) 346-2153,http://www.chicagoparkschool.org,2,K-8
Chawanakee Unified School District,O'Neals,Madera,(559) 877-6209,http://www.chawanakee.k12.ca.us,9,K-12
Chico Unified School District,Chico,Butte,(530) 891-3000,http://www.chicousd.org,29,PK-12
Chino Valley Unified School District,Chino,San Bernardino,(909) 628-1201,http://www.chino.k12.ca.us,36,K-12
Charter Oak Unified School District,Covina,Los Angeles,(626) 966-8331,http://www.cousd.net,11,K-12
Chaffey Joint Union High School District,Ontario,San Bernardino,(909) 988-8511,http://www.cjuhsd.net,12,9-12
Ceres Unified School District,Ceres,Stanislaus,(209) 556-1500,http://www.ceres.k12.ca.us,27,PK-12
Central Union High School District,El Centro,Imperial,(760) 336-4500,http://www.cuhsd.net,5,9-12
Centinela Valley Union High School District,Lawndale,Los Angeles,(310) 263-3200,http://www.centinela.k12.ca.us,8,9-12
Centralia Elementary School District,Buena Park,Orange,(714) 228-3100,http://www.cesd.us,8,K-6
Central Union Elementary School District,Lemoore,Kings,(559) 924-3405,,4,1896
Central Unified School District,Fresno,Fresno,(559) 274-4700,http://www.centralunified.org,23,K-12
Central Orange County Cte Partnership (Ctep) School District,Costa Mesa,Orange,(714) 966-3528,,1,10-12
Central Sierra Rop School District,Placerville,El Dorado,(530) 622-7130,,1,10-12
Central Elementary School District,Rancho Cucamonga,San Bernardino,(909) 989-8541,http://www.csd-ca.schoolloop.com,7,K-8
Castle Rock Union Elementary School District,Castella,Shasta,(530) 235-0101,http://www.castlerockschool.net,1,K-8
Caruthers Unified School District,Caruthers,Fresno,(559) 864-6500,http://www.caruthers.k12.ca.us,3,K-12
Castaic Union School District,Valencia,Los Angeles,(661) 257-4500,http://www.castaicusd.com,5,PK-8
Carpinteria Unified School District,Carpinteria,Santa Barbara,(805) 684-4511,http://www.cusd.net,8,K-12
Cascade Union Elementary School District,Anderson,Shasta,(530) 378-7000,http://www.cuesd.com,5,K-8
Cayucos Elementary School District,Cayucos,San Luis Obispo,(805) 995-3694,http://www.cesdschool.net,1,K-8
Center Joint Unified School District,Antelope,Sacramento,(916) 338-6330,http://www.centerusd.k12.ca.us,8,K-12
Castro Valley Unified School District,Castro Valley,Alameda,(510) 537-3000,http://www.cv.k12.ca.us,17,PK-12
Capistrano-Laguna Beach Rop,San Juan Capistrano,Orange,(949) 496-3118,,1,8-12
Canyon Elementary School District,Canyon,Contra Costa,(925) 376-4671,,1,70
Capay Joint Union Elementary School District,Orland,Glenn,(530) 865-1222,http://www.cjuesd.org,1,K-8
Cardiff Elementary School District,Cardiff-By-The-Sea,San Diego,(760) 632-5890,http://www.cardiffschools.com,2,K-6
Capistrano Unified School District,San Juan Capistrano,Orange,(949) 234-9200,http://www.capousd.org,63,K-12
Carlsbad Unified School District,Carlsbad,San Diego,(760) 331-5000,http://www.carlsbadusd.k12.ca.us,17,K-12
Carmel Unified School District,Carmel,Monterey,(831) 624-1546,http://www.carmelunified.org,9,PK-12
Camptonville Elementary School District,Camptonville,Yuba,(530) 288-3277,http://www.cville.k12.ca.us,2,K-12
Camino Union Elementary School District,Camino,El Dorado,(530) 644-4552,http://www.caminoschool.org,2,K-8
Calipatria Unified School District,Calipatria,Imperial,(760) 348-2151,,4,1192
Campbell Union School District,Campbell,Santa Clara,(408) 364-4200,http://www.campbellusd.org,12,K-8
Calistoga Joint Unified School District,Calistoga,Napa,(707) 942-4703,http://www.calistoga.k12.ca.us,3,K-12
Cambrian School District,San Jose,Santa Clara,(408) 377-2103,http://www.cambriansd.org,6,K-8
California School For The Deaf-Riverside (State Special Schl) School District,Riverside,Riverside,(951) 248-7700,http://www.csdr-cde.ca.gov,1,K-12
California School For The Deaf-Fremont (State Special Schl) School District,Fremont,Alameda,(510) 794-3666,http://www.csdeagles.com,1,PK-12
Campbell Union High School District,San Jose,Santa Clara,(408) 371-0960,http://www.cuhsd.org,8,9-12
Butte Valley Unified School District,Dorris,Siskiyou,(530) 397-4000,http://www.bvalusd.org,5,K-12
Burrel Union Elementary School District,Riverdale,Fresno,(559) 866-5634,http://burrel.ca.schoolwebpages.com,1,K-8
Byron Union Elementary School District,Byron,Contra Costa,(925) 809-7500,,4,1677
Butte County Office Of Education School District,Oroville,Butte,(530) 532-5761,http://www.bcoe.org,6,K-12
Buttonwillow Union Elementary School District,Buttonwillow,Kern,(661) 764-5166,,1,373
Burton Elementary School District,Porterville,Tulare,(559) 781-8020,http://www.burtonschools.org,8,K-12
Butteville Union Elementary School District,Weed,Siskiyou,(530) 938-2255,http://www.butteville.k12.ca.us,1,K-8
Butte County Rop School District,Chico,Butte,(530) 879-7462,,1,9-12
California School For The Blind (State Special Schl) School District,Fremont,Alameda,(510) 794-3800,http://www.csb-cde.ca.gov,1,K-12
Cabrillo Unified School District,Half Moon Bay,San Mateo,(650) 712-7100,http://www.cabrillo.k12.ca.us,8,K-12
Calaveras Unified School District,San Andreas,Calaveras,(209) 754-2300,http://www.calaveras.k12.ca.us,10,K-12
Calaveras County Office Of Education School District,Angels Camp,Calaveras,(209) 736-4662,http://www.ccoe.k12.ca.us,5,PK-12
Caliente Union Elementary School District,Caliente,Kern,(661) 867-2301,,1,68
Calexico Unified School District,Calexico,Imperial,(760) 768-3888,,12,9216
California Advancing Pathways For Students In Los Angeles County Roc P School District,Bellflower,Los Angeles,,,1,PK-12
Cajon Valley Union School District,El Cajon,San Diego,(619) 588-3005,http://www.cajonvalley.net,30,PK-8
Burnt Ranch Elementary School District,Burnt Ranch,Trinity,(530) 629-2543,http://www.tcoek12.org,1,K-8
Browns Elementary School District,Rio Oso,Sutter,(530) 633-2523,http://www.sutter.k12.ca.us/district/browns/browns.htm,1,K-8
Buena Park Elementary School District,Buena Park,Orange,(714) 522-8412,http://www.bpsd.k12.ca.us,7,K-8
Buena Vista Elementary School District,Tulare,Tulare,(559) 686-2015,,1,K-8
Brittan Elementary School District,Sutter,Sutter,(530) 822-5155,http://www.brittan.k12.ca.us,1,K-8
Buckeye Union Elementary School District,El Dorado Hills,El Dorado,(530) 677-2261,http://www.buckeyeusd.org,11,K-12
Burlingame Elementary School District,Burlingame,San Mateo,(650) 259-3800,http://www.burlingameschools.org,8,PK-8
Burbank Unified School District,Burbank,Los Angeles,(818) 729-4400,http://www.burbankusd.org,22,PK-12
Bret Harte Union High School District,Angels Camp,Calaveras,(209) 736-8340,http://bhuhsd-ca.schoolloop.com/,3,9-12
Briggs Elementary School District,Santa Paula,Ventura,(805) 525-7540,http://www.briggsesd.org,2,K-8
Brisbane Elementary School District,Brisbane,San Mateo,(415) 467-0550,http://www.brisbanesd.org,3,K-8
Bridgeville Elementary School District,Bridgeville,Humboldt,(707) 777-3311,,1,40
Buellton Union Elementary School District,Buellton,Santa Barbara,(805) 686-2767,http://www.buelltonusd.org,2,K-8
Blake Elementary School District,Woody,Kern,(661) 536-8559,,1,5
Bogus Elementary School District,Montague,Siskiyou,(530) 459-3163,http://www.sisnet.ssku.k12.ca.us/~bogusftp,1,K-8
Bonita Unified School District,San Dimas,Los Angeles,(909) 971-8200,http://www.bonita.k12.ca.us,16,K-12
Blue Lake Union Elementary School District,Blue Lake,Humboldt,(707) 668-5674,,1,137
Bolinas-Stinson Union School District,Bolinas,Marin,(415) 868-1603,http://www.bolinas-stinson.org,1,K-8
Black Oak Mine Unified School District,Georgetown,El Dorado,(530) 333-8300,http://www.bomusd.org,6,K-12
Blochman Union Elementary School District,Santa Maria,Santa Barbara,(805) 937-1148,http://www.sbceo.k12.ca.us/districts/blochmanusd,3,K-12
Bonny Doon Union Elementary School District,Santa Cruz,Santa Cruz,(831) 427-2300,http://www.bonnydoon.santacruz.k12.ca.us,1,K-6
Borrego Springs Unified School District,Borrego Springs,San Diego,(760) 767-5357,http://www.bsusd.com/,6,PK-12
Brentwood Union Elementary School District,Brentwood,Contra Costa,(925) 513-6300,,11,8336
Brea-Olinda Unified School District,Brea,Orange,(714) 990-7800,http://www.bousd.k12.ca.us,9,K-12
Bradley Union Elementary School District,Bradley,Monterey,(805) 472-2310,http://bradleyusd-ca.schoolloop.com/,4,K-12
Bonsall Unified School District,Bonsall,San Diego,(760) 631-5200,http://www.bonsallusd.com,6,K-12
Brawley Elementary School District,Brawley,Imperial,(760) 344-2330,,5,3725
Black Butte Union Elementary School District,Shingletown,Shasta,(530) 474-3125,http://www.blackbutteschool.org,2,K-8
Brawley Union High School District,Brawley,Imperial,(760) 312-5819,,3,1808
Big Sur Unified School District,Big Sur,Monterey,(805) 927-4507,http://bigsurunified.org,2,K-12
Big Valley Joint Unified School District,Bieber,Lassen,(530) 294-5266,,3,210
Big Pine Unified School District,Big Pine,Inyo,(760) 938-2005,,2,199
Bishop Unified School District,Bishop,Inyo,(760) 872-3680,http://www.bishopschools.org,9,K-12
Big Springs Union Elementary School District,Montague,Siskiyou,(530) 459-3189,http://www.bgsp.k12.ca.us,1,K-8
Bitterwater-Tully Elementary School District,King City,San Benito,(831) 385-5339,http://www.sbcoe.k12.ca.us/districts/bitterwater.html,1,K-8
Biggs Unified School District,Biggs,Butte,(530) 868-1281,http://www.biggs.org,4,K-12
Big Oak Flat-Groveland Unified School District,Groveland,Tuolumne,(209) 962-5765,http://www.bofg.k12.ca.us,5,K-12
Big Lagoon Union Elementary School District,Trinidad,Humboldt,(707) 677-3688,,1,54
Berkeley Unified School District,Berkeley,Alameda,(510) 644-8764,http://www.berkeleyschools.net,20,PK-12
Beverly Hills Unified School District,Beverly Hills,Los Angeles,(310) 551-5100,http://www.bhusd.org,6,K-12
Bennett Valley Union Elementary School District,Santa Rosa,Sonoma,(707) 542-2201,http://www.bvusd.org,2,K-6
Big Creek Elementary School District,Big Creek,Fresno,(559) 893-3314,http://www.bigcreekschool.com,1,K-8
Belmont-Redwood Shores Elementary School District,Belmont,San Mateo,(650) 637-4800,http://www.brssd.org,7,K-8
Berryessa Union Elementary School District,San Jose,Santa Clara,(408) 923-1880,http://www.berryessa.k12.ca.us,14,PK-8
Belridge Elementary School District,Mckittrick,Kern,(661) 762-7381,,1,32
Benicia Unified School District,Benicia,Solano,(707) 747-8300,http://www.beniciaunified.org,8,K-12
Bayshore Elementary School District,Daly City,San Mateo,(415) 467-5443,http://www.bayshore.k12.ca.us,1,K-8
Bellevue Union School District,Santa Rosa,Sonoma,(707) 542-5197,http://www.busd.org/,5,K-12
Bellflower Unified School District,Bellflower,Los Angeles,(562) 866-9011,http://www.busd.k12.ca.us,16,PK-12
Bear Valley Unified School District,Big Bear Lake,San Bernardino,(909) 866-4631,http://www.bearvalleyusd.org,7,K-12
Beaumont Unified School District,Beaumont,Riverside,(951) 845-1631 x5374,http://www.beaumontusd.k12.ca.us,15,PK-12
Beardsley Elementary School District,Bakersfield,Kern,(661) 393-8550,,4,1705
Belleview Elementary School District,Sonora,Tuolumne,(209) 586-5510,http://www.belleview.k12.ca.us,1,K-8
Bella Vista Elementary School District,Bella Vista,Shasta,(530) 549-4415,http://www.bveagles.com,1,K-8
Ballard Elementary School District,Solvang,Santa Barbara,(805) 688-4812,http://www.ballardschool.org,1,K-6
Bassett Unified School District,La Puente,Los Angeles,(626) 931-3000,http://www.bassett.k12.ca.us,8,K-12
Bass Lake Joint Union Elementary School District,Oakhurst,Madera,(559) 642-1555,http://www.basslakeschooldistrict.com,5,K-8
Ballico-Cressey Elementary School District,Ballico,Merced,(209) 632-5371,http://www.ballicocressey.com,2,K-8
Banta Elementary School District,Tracy,San Joaquin,(209) 229-4651,http://bantaesd.sharpschool.net,2,K-8
Banning Unified School District,Banning,Riverside,(951) 922-0200,http://www.banning.k12.ca.us,12,PK-12
Barstow Unified School District,Barstow,San Bernardino,(760) 255-6000,http://www.barstow.k12.ca.us,13,K-12
Bangor Union Elementary School District,Bangor,Butte,(530) 679-2434,http://www.bcoe.org/home/districts/bangor,1,K-8
Baldy View Rop School District,Ontario,San Bernardino,(909) 980-6490,,1,9-12
Bakersfield City School District,Bakersfield,Kern,(661) 631-4610,,44,28321
Atwater Elementary School District,Atwater,Merced,(209) 357-6100,http://www.aesd.edu,10,K-8
Azusa Unified School District,Azusa,Los Angeles,(626) 967-6211,http://www.azusa.org,19,PK-12
Auburn Union Elementary School District,Auburn,Placer,(530) 885-7242,http://www.auburn.k12.ca.us,5,K-8
Atascadero Unified School District,Atascadero,San Luis Obispo,(805) 462-4200,http://www.atasusd.org,12,PK-12
Baldwin Park Unified School District,Baldwin Park,Los Angeles,(626) 962-3311,http://www.bpusd.net,23,K-12
Baker Valley Unified School District,Baker,San Bernardino,(760) 733-4567,http://www.baker.k12.ca.us/baker.htm,4,K-12
Arena Union Elementary School District,Point Arena,Mendocino,(707) 882-2803,http://www.mcoe.k12.ca.us/schools/arena_union,2,K-12
Aromas - San Juan Unified School District,San Juan Bautista,San Benito,(831) 623-4500,http://www.asjusd.k12.ca.us,3,K-12
Armona Union Elementary School District,Armona,Kings,(559) 583-5000,,4,2347
Arcohe Union Elementary School District,Herald,Sacramento,(209) 748-2313,http://www.arcohe.net,1,K-8
Arvin Union School District,Arvin,Kern,(661) 854-6500,,4,3187
Arcata Elementary School District,Arcata,Humboldt,(707) 822-0351,,6,917
Arcadia Unified School District,Arcadia,Los Angeles,(626) 821-8300,http://www.ausd.k12.ca.us,11,K-12
Anderson Union High School District,Anderson,Shasta,(530) 378-0568,http://www.auhsd.net,7,9-12
Antelope Elementary School District,Red Bluff,Tehama,(530) 527-1272,http://aesd-ca.schoolloop.com,6,K-8
Anderson Valley Unified School District,Boonville,Mendocino,(707) 895-3774,http://www.avusd.k12.ca.us,4,K-12
Apple Valley Unified School District,Apple Valley,San Bernardino,(760) 247-8001,http://www.avusd.org,16,PK-12
Antelope Valley Union High School District,Lancaster,Los Angeles,(661) 948-7655,http://www.avdistrict.org,15,7-12
Anaheim Union High School District,Anaheim,Orange,(714) 999-3511,http://www.auhsd.us,20,7-12
Antioch Unified School District,Antioch,Contra Costa,(925) 779-7500,http://www.antioch.k12.ca.us,28,K-12
Antelope Valley Rop School District,Palmdale,Los Angeles,(661) 575-1026,http://www.avrop.avhsd.org,1,9-12
Anaheim Elementary School District,Anaheim,Orange,(714) 517-7500,http://www.acsd.k12.ca.us,25,K-6
Alvord Unified School District,Corona,Riverside,(951) 509-5070,http://www.alvord.k12.ca.us,27,PK-12
Amador County Unified School District,Jackson,Amador,(209) 223-1750,http://www.amadorcoe.org,12,K-12
Alta Vista Elementary School District,Porterville,Tulare,(559) 782-5700,http://www.alta-vista.k12.ca.us,1,K-8
Amador County Office Of Education School District,Jackson,Amador,(209) 257-5353,http://www.amadorcoe.org/,3,K-12
Alview-Dairyland Union Elementary School District,Chowchilla,Madera,(559) 665-2394,http://www.adusd.k12.ca.us,2,K-8
Alta-Dutch Flat Union Elementary School District,Alta,Placer,(530) 389-8283,http://www.alta.k12.ca.us,1,K-8
Alpine Union Elementary School District,Alpine,San Diego,(619) 445-3236,http://www.alpineschools.net,6,PK-8
Alum Rock Union Elementary School District,San Jose,Santa Clara,(408) 928-6800,http://www.arusd.org,28,PK-8
Alta Loma Elementary School District,Alta Loma,San Bernardino,(909) 484-5151,http://www.alsd.k12.ca.us,10,K-8
Abc Unified School District,Cerritos,Los Angeles,(562) 926-5566,http://www.abcusd.k12.ca.us,31,K-12
Amador County Rop School District,Jackson,Amador,(209) 267-5497,,1,12
Alvina Elementary School District,Caruthers,Fresno,(559) 864-9411,,1,K-8
